{
    "version": 0.6,
    "generator": "Overpass API 0.7.62.5 1bd436f1",
    "osm3s": {
        "timestamp_osm_base": "2025-03-06T00:48:04Z",
        "copyright": "The data included in this document is from www.openstreetmap.org. The data is made available under ODbL."
    },
    "elements": [
        {
            "type": "node",
            "id": 1562485879,
            "lat": -8.8292177,
            "lon": 13.26468,
            "dinheiro": true
        },
        {
            "type": "node",
            "id": 1562485879,
            "lat": -8.8292177,
            "lon": 13.26468,
            "dinheiro": false
        },
        {
            "type": "node",
            "id": 1562487513,
            "lat": -8.830212,
            "lon": 13.247476,
            "dinheiro": true
        },
        {
            "type": "node",
            "id": 1562490807,
            "lat": -8.8294117,
            "lon": 13.2638156,
            "dinheiro": false
        },
        {
            "type": "node",
            "id": 1563901860,
            "lat": -8.8258363,
            "lon": 13.2465967,
            "dinheiro": true
        },
        {
            "type": "node",
            "id": 1633554399,
            "lat": -8.8426222,
            "lon": 13.2426789,
            "dinheiro": false
        },
        {
            "type": "node",
            "id": 1635383732,
            "lat": -8.827157,
            "lon": 13.2394462,
            "tags": {
                "amenity": "bank",
                "atm": "no",
                "name": "Banco Kwanza Invest"
            },
            "dinheiro": true
        },
        {
            "type": "node",
            "id": 1635383734,
            "lat": -8.8240282,
            "lon": 13.2389976,
            "tags": {
                "addr:street": "Largo Sagrada Familia",
                "amenity": "bank",
                "atm": "yes",
                "name": "Banco BIC Angola"
            },
            "dinheiro": false
        },
        {
            "type": "node",
            "id": 1635393250,
            "lat": -8.822018,
            "lon": 13.2380138,
            "dinheiro": true
        },
        {
            "type": "node",
            "id": 1636695782,
            "lat": -8.8832943,
            "lon": 13.2512988,
            "dinheiro": false
        },
        {
            "type": "node",
            "id": 1637905087,
            "lat": -8.9026926,
            "lon": 13.1963144,
            "dinheiro": true
        },
        {
            "type": "node",
            "id": 1637905518,
            "lat": -8.9027595,
            "lon": 13.1960642,
            "tags": {
                "addr:city": "Luanda",
                "addr:street": "Avenida Pedro de C. Vandunem-Loy",
                "amenity": "bank",
                "atm": "yes",
                "name": "Banco BIC Angola"
            },
            "dinheiro": false
        },
        {
            "type": "node",
            "id": 1641688472,
            "lat": -8.8236574,
            "lon": 13.2385812,
            "tags": {
                "addr:city": "Luanda",
                "amenity": "bank",
                "atm": "yes",
                "name": "Banco de Comércio e Indústria (BCI)"
            },
            "dinheiro": true
        },
        {
            "type": "node",
            "id": 1655558695,
            "lat": -8.9075646,
            "lon": 13.373312,
            "dinheiro": false
        },
        {
            "type": "node",
            "id": 1655558726,
            "lat": -8.9075646,
            "lon": 13.3735373,
            "dinheiro": true
        },
        {
            "type": "node",
            "id": 1655558962,
            "lat": -8.9069816,
            "lon": 13.3738699,
            "dinheiro": false
        },
        {
            "type": "node",
            "id": 1655560644,
            "lat": -8.9062291,
            "lon": 13.3743634,
            "dinheiro": true
        },
        {
            "type": "node",
            "id": 1655560645,
            "lat": -8.9091118,
            "lon": 13.3733868,
            "tags": {
                "addr:city": "Luanda",
                "addr:street": "Rua 11 de Novembro",
                "amenity": "bank",
                "atm": "yes",
                "name": "Banco BIC"
            },
            "dinheiro": false
        },
        {
            "type": "node",
            "id": 1655560646,
            "lat": -8.9068332,
            "lon": 13.3746209,
            "dinheiro": true
        },
        {
            "type": "node",
            "id": 1714739976,
            "lat": -8.8851627,
            "lon": 13.2063929,
            "tags": {
                "addr:street": "Av. 21 De Janeiro",
                "amenity": "bank",
                "atm": "yes",
                "name": "Banco Angolano de Investimentos (BAI)"
            },
            "dinheiro": false
        },
        {
            "type": "node",
            "id": 1714741211,
            "lat": -8.885401,
            "lon": 13.2062693,
            "tags": {
                "addr:street": "Avenida 21 De Janeiro",
                "amenity": "bank",
                "atm": "yes",
                "name": "Banco BIC Angola"
            },
            "dinheiro": true
        },
        {
            "type": "node",
            "id": 2022960506,
            "lat": -8.777773,
            "lon": 13.243281,
            "tags": {
                "addr:city": "Luanda",
                "addr:street": "Avenida Murtala Mohamed",
                "amenity": "bank",
                "atm": "yes",
                "name": "Banco BIC Angola",
                "name:de": "BIC Bank Angola",
                "name:en": "BIC Bank Angola",
                "name:es": "Banque BIC Angola",
                "name:fr": "BIC Banque",
                "name:it": "Banca BIC Angola",
                "name:nl": "BIC Bank Angola",
                "name:pl": "BIC Bank Angola",
                "name:pt": "Banco BIC Angola",
                "name:ru": "БИК Банк Ангола"
            },
            "dinheiro": false
        },
        {
            "type": "node",
            "id": 2026382988,
            "lat": -8.8169863,
            "lon": 13.2319862,
            "tags": {
                "amenity": "bank",
                "name": "Banco BIC Angola"
            },
            "dinheiro": true
        },
        {
            "type": "node",
            "id": 2026383182,
            "lat": -8.8166111,
            "lon": 13.2318096,
            "tags": {
                "addr:city": "Luanda",
                "addr:street": "Rua Amilcar Cabral (ex Doutor Miguel Pereira Forjaz)",
                "amenity": "bank",
                "name": "Banco Angolano de Investimentos (BAI)"
            },
            "dinheiro": false
        },
        {
            "type": "node",
            "id": 2157115541,
            "lat": -8.8331064,
            "lon": 13.2237168,
            "tags": {
                "amenity": "bank",
                "atm": "yes"
            },
            "dinheiro": true
        },
        {
            "type": "node",
            "id": 2157115562,
            "lat": -8.8333073,
            "lon": 13.2240687,
            "tags": {
                "amenity": "bank",
                "atm": "yes"
            },
            "dinheiro": false
        },
        {
            "type": "node",
            "id": 2173640830,
            "lat": -8.8190126,
            "lon": 13.2513299,
            "tags": {
                "addr:city": "Luanda",
                "amenity": "bank",
                "brand": "Banco de Fomento Angola (BFA)",
                "brand:en": "Angola Development Bank (BFA)",
                "brand:es": "Banco de Fomento Angola (BFA)",
                "brand:wikidata": "Q806197",
                "brand:wikipedia": "de:Banco de Fomento Angola",
                "name": "Banco de Fomento Angola (BFA)",
                "name:de": "Angola Entwicklungsbank (BFA)",
                "name:en": "Angola Development Bank (BFA)",
                "name:es": "Banco de Fomento Angola (BFA)",
                "name:fr": "Banque de Developpement Angola (BFA)",
                "name:it": "Banca di Sviluppo Angola (BFA)",
                "name:nl": "Angola Ontwikkelingsbank (BFA)",
                "name:pl": "Bank Rozwoju Angola (BFA)",
                "name:pt": "Banco de Fomento Angola (BFA)",
                "name:ru": "Банк Развития Ангола (БФА)"
            },
            "dinheiro": true
        },
        {
            "type": "node",
            "id": 2173640861,
            "lat": -8.8180074,
            "lon": 13.2473736,
            "tags": {
                "addr:city": "Luanda",
                "addr:street": "Avenida Comandante Valódia (ex Combatentes)",
                "amenity": "bank",
                "name": "Banco Angolano de Investimentos (BAI)"
            },
            "dinheiro": false
        },
        {
            "type": "node",
            "id": 2331788805,
            "lat": -8.8148596,
            "lon": 13.256164,
            "tags": {
                "addr:street": "Rua do Kikombo",
                "amenity": "bank",
                "brand": "Banco Sol",
                "brand:en": "Sol Bank",
                "brand:pt": "Banco Sol",
                "brand:wikidata": "Q62118744",
                "name": "Banco Sol",
                "name:de": "Sonnenbank",
                "name:en": "Sun Bank",
                "name:es": "Banco Sol",
                "name:fr": "Banc Soleil",
                "name:it": "Banca Sole",
                "name:nl": "Zonnebank",
                "name:pl": "Bank Słońca",
                "name:pt": "Banco Sol",
                "name:ru": "Солнечный Берег"
            },
            "dinheiro": true
        },
        {
            "type": "node",
            "id": 2331789636,
            "lat": -8.8161954,
            "lon": 13.2555283,
            "tags": {
                "addr:city": "Luanda",
                "addr:housename": "Cine Sao Paulo",
                "addr:street": "Avenida Ngola Kiluanje",
                "amenity": "bank",
                "brand": "Banco de Fomento Angola (BFA)",
                "brand:en": "Angola Development Bank (BFA)",
                "brand:es": "Banco de Fomento Angola (BFA)",
                "brand:wikidata": "Q806197",
                "brand:wikipedia": "de:Banco de Fomento Angola",
                "name": "Banco de Fomento Angola (BFA)",
                "name:de": "Angola Entwicklungsbank (BFA)",
                "name:en": "Angola Development Bank (BFA)",
                "name:es": "Banco de Fomento Angola (BFA)",
                "name:fr": "Banque de Developpement Angola (BFA)",
                "name:it": "Banca di Sviluppo Angola (BFA)",
                "name:nl": "Angola Ontwikkelingsbank (BFA)",
                "name:pl": "Bank Rozwoju Angola (BFA)",
                "name:pt": "Banco de Fomento Angola (BFA)",
                "name:ru": "Банк Развития Ангола (БФА)"
            },
            "dinheiro": false
        },
        {
            "type": "node",
            "id": 2331829550,
            "lat": -8.825761,
            "lon": 13.2400279,
            "tags": {
                "addr:city": "Luanda",
                "amenity": "bank",
                "atm": "yes",
                "brand": "Banco Sol",
                "brand:en": "Sol Bank",
                "brand:pt": "Banco Sol",
                "brand:wikidata": "Q62118744",
                "name": "Banco Sol",
                "name:de": "Sonnenbank",
                "name:en": "Sun Bank",
                "name:es": "Banco Sol",
                "name:fr": "Banc Soleil",
                "name:it": "Banca Sole",
                "name:nl": "Zonnebank",
                "name:pl": "Bank Słońca",
                "name:pt": "Banco Sol",
                "name:ru": "Солнечный Берег"
            },
            "dinheiro": true
        },
        {
            "type": "node",
            "id": 2332927543,
            "lat": -8.8151727,
            "lon": 13.2357031,
            "tags": {
                "amenity": "bank",
                "brand": "Banco de Fomento Angola",
                "brand:short": "BFA",
                "brand:wikidata": "Q806197",
                "name": "Banco de Fomento Angola",
                "short_name": "BFA"
            },
            "dinheiro": false
        },
        {
            "type": "node",
            "id": 2332928916,
            "lat": -8.815516,
            "lon": 13.235646,
            "tags": {
                "amenity": "bank",
                "name": "Banco VTB Africa"
            },
            "dinheiro": true
        },
        {
            "type": "node",
            "id": 2332932228,
            "lat": -8.815998,
            "lon": 13.2375553,
            "tags": {
                "addr:city": "Luanda",
                "amenity": "bank",
                "brand": "Banco de Fomento Angola",
                "brand:en": "Angola Development Bank (BFA)",
                "brand:es": "Banco de Fomento Angola (BFA)",
                "brand:short": "BFA",
                "brand:wikidata": "Q806197",
                "brand:wikipedia": "de:Banco de Fomento Angola",
                "name": "Banco de Fomento Angola",
                "name:de": "Angola Entwicklungsbank (BFA)",
                "name:en": "Angola Development Bank (BFA)",
                "name:es": "Banco de Fomento Angola (BFA)",
                "name:fr": "Banque de Developpement Angola (BFA)",
                "name:it": "Banca di Sviluppo Angola (BFA)",
                "name:nl": "Angola Ontwikkelingsbank (BFA)",
                "name:pl": "Bank Rozwoju Angola (BFA)",
                "name:pt": "Banco de Fomento Angola (BFA)",
                "name:ru": "Банк Развития Ангола (БФА)",
                "short_name": "BFA"
            },
            "dinheiro": false
        },
        {
            "type": "node",
            "id": 2333012743,
            "lat": -8.8138558,
            "lon": 13.2349144,
            "tags": {
                "amenity": "bank",
                "name": "Banco Keve"
            },
            "dinheiro": true
        },
        {
            "type": "node",
            "id": 2333018486,
            "lat": -8.8164977,
            "lon": 13.2348793,
            "tags": {
                "addr:city": "Luanda",
                "amenity": "bank",
                "name": "Banco Angolano de Investimentos (BAI)"
            },
            "dinheiro": false
        },
        {
            "type": "node",
            "id": 2333018964,
            "lat": -8.8165938,
            "lon": 13.2361962,
            "tags": {
                "addr:city": "Luanda",
                "amenity": "bank",
                "brand": "Banco de Fomento Angola",
                "brand:en": "Angola Development Bank (BFA)",
                "brand:es": "Banco de Fomento Angola (BFA)",
                "brand:short": "BFA",
                "brand:wikidata": "Q806197",
                "brand:wikipedia": "de:Banco de Fomento Angola",
                "name": "Banco de Fomento Angola",
                "name:de": "Angola Entwicklungsbank (BFA)",
                "name:en": "Angola Development Bank (BFA)",
                "name:es": "Banco de Fomento Angola (BFA)",
                "name:fr": "Banque de Developpement Angola (BFA)",
                "name:it": "Banca di Sviluppo Angola (BFA)",
                "name:nl": "Angola Ontwikkelingsbank (BFA)",
                "name:pl": "Bank Rozwoju Angola (BFA)",
                "name:pt": "Banco de Fomento Angola (BFA)",
                "name:ru": "Банк Развития Ангола (БФА)",
                "short_name": "BFA"
            },
            "dinheiro": true
        },
        {
            "type": "node",
            "id": 2333019144,
            "lat": -8.8170791,
            "lon": 13.2375688,
            "tags": {
                "amenity": "bank",
                "name": "Banco Caixa Geral Angola (BCGA)"
            },
            "dinheiro": false
        },
        {
            "type": "node",
            "id": 2333021140,
            "lat": -8.8175993,
            "lon": 13.238149,
            "tags": {
                "addr:city": "Luanda",
                "addr:street": "Avenida de Portugal",
                "amenity": "bank",
                "name": "Banco BIC Angola",
                "opening_hours": "Mo-Fr",
                "website": "https://www.bancobic.ao/"
            },
            "dinheiro": true
        },
        {
            "type": "node",
            "id": 2333071476,
            "lat": -8.8181982,
            "lon": 13.2353527,
            "tags": {
                "amenity": "bank",
                "name": "Banco de Poupança e Crédito (BPC)"
            },
            "dinheiro": false
        },
        {
            "type": "node",
            "id": 2345154887,
            "lat": -8.9558789,
            "lon": 13.1501787,
            "tags": {
                "addr:city": "Luanda",
                "addr:street": "Estrada do Benfica",
                "amenity": "bank",
                "atm": "yes",
                "name": "Banco BIC Angola"
            },
            "dinheiro": true
        },
        {
            "type": "node",
            "id": 2345154890,
            "lat": -8.9564565,
            "lon": 13.1508573,
            "dinheiro": false
        },
        {
            "type": "node",
            "id": 2351823862,
            "lat": -8.9706464,
            "lon": 13.1356288,
            "dinheiro": true
        },
        {
            "type": "node",
            "id": 2354964509,
            "lat": -8.8188612,
            "lon": 13.2385463,
            "dinheiro": false
        },
        {
            "type": "node",
            "id": 2354964519,
            "lat": -8.8187701,
            "lon": 13.2381577,
            "dinheiro": true
        },
        {
            "type": "node",
            "id": 2356962022,
            "lat": -8.8375162,
            "lon": 13.237005,
            "dinheiro": false
        },
        {
            "type": "node",
            "id": 2356964480,
            "lat": -8.8330802,
            "lon": 13.240306,
            "dinheiro": true
        },
        {
            "type": "node",
            "id": 2356964481,
            "lat": -8.8351467,
            "lon": 13.2434986,
            "dinheiro": false
        },
        {
            "type": "node",
            "id": 2358225605,
            "lat": -8.8331669,
            "lon": 13.2630626,
            "dinheiro": true
        },
        {
            "type": "node",
            "id": 2375121195,
            "lat": -8.8184653,
            "lon": 13.2310324,
            "dinheiro": false
        },
        {
            "type": "node",
            "id": 2409461383,
            "lat": -8.825986,
            "lon": 13.2549798,
            "dinheiro": true
        },
        {
            "type": "node",
            "id": 2426586954,
            "lat": -8.8272325,
            "lon": 13.2613952,
            "dinheiro": false
        },
        {
            "type": "node",
            "id": 2426637949,
            "lat": -8.8246109,
            "lon": 13.2556852,
            "dinheiro": true
        },
        {
            "type": "node",
            "id": 2426712964,
            "lat": -8.8193334,
            "lon": 13.2438646,
            "dinheiro": false
        },
        {
            "type": "node",
            "id": 2482106167,
            "lat": -8.8387044,
            "lon": 13.2513448,
            "dinheiro": true
        },
        {
            "type": "node",
            "id": 2496081764,
            "lat": -8.8248346,
            "lon": 13.2239209,
            "dinheiro": false
        },
        {
            "type": "node",
            "id": 2555369415,
            "lat": -8.8157222,
            "lon": 13.2419401,
            "dinheiro": true
        },
        {
            "type": "node",
            "id": 2555369423,
            "lat": -8.8258311,
            "lon": 13.2589033,
            "dinheiro": false
        },
        {
            "type": "node",
            "id": 2555385885,
            "lat": -8.8462071,
            "lon": 13.2117518,
            "dinheiro": true
        },
        {
            "type": "node",
            "id": 2555385892,
            "lat": -8.8287332,
            "lon": 13.2144877,
            "dinheiro": false
        },
        {
            "type": "node",
            "id": 2555385894,
            "lat": -8.8286538,
            "lon": 13.2145038,
            "dinheiro": true
        },
        {
            "type": "node",
            "id": 2555392713,
            "lat": -8.83926,
            "lon": 13.2140907,
            "dinheiro": false
        },
        {
            "type": "node",
            "id": 2555392719,
            "lat": -8.8565074,
            "lon": 13.2067362,
            "dinheiro": true
        },
        {
            "type": "node",
            "id": 2555392720,
            "lat": -8.8394447,
            "lon": 13.2140444,
            "dinheiro": false
        },
        {
            "type": "node",
            "id": 2555392721,
            "lat": -8.8583611,
            "lon": 13.2057196,
            "dinheiro": true
        },
        {
            "type": "node",
            "id": 2731443228,
            "lat": -8.8383266,
            "lon": 13.2460601,
            "dinheiro": false
        },
        {
            "type": "node",
            "id": 2731727922,
            "lat": -8.8382321,
            "lon": 13.2608788,
            "dinheiro": true
        },
        {
            "type": "node",
            "id": 2731749649,
            "lat": -8.8632369,
            "lon": 13.2623304,
            "dinheiro": false
        },
        {
            "type": "node",
            "id": 2731749656,
            "lat": -8.8631389,
            "lon": 13.2623814,
            "dinheiro": true
        },
        {
            "type": "node",
            "id": 2731750335,
            "lat": -8.8632926,
            "lon": 13.2622875,
            "dinheiro": false
        },
        {
            "type": "node",
            "id": 2731772093,
            "lat": -8.8183593,
            "lon": 13.2316159,
            "dinheiro": true
        },
        {
            "type": "node",
            "id": 2885004377,
            "lat": -8.9042821,
            "lon": 13.188626,
            "dinheiro": false
        },
        {
            "type": "node",
            "id": 3073388228,
            "lat": -8.813217,
            "lon": 13.2334127,
            "dinheiro": true
        },
        {
            "type": "node",
            "id": 3626039511,
            "lat": -8.9222688,
            "lon": 13.1706396,
            "dinheiro": false
        },
        {
            "type": "node",
            "id": 3626039513,
            "lat": -8.9222584,
            "lon": 13.1709622,
            "dinheiro": true
        },
        {
            "type": "node",
            "id": 3626056622,
            "lat": -8.9219991,
            "lon": 13.1715248,
            "dinheiro": false
        },
        {
            "type": "node",
            "id": 3626073088,
            "lat": -8.9199017,
            "lon": 13.1733623,
            "dinheiro": true
        },
        {
            "type": "node",
            "id": 3633606646,
            "lat": -8.9211027,
            "lon": 13.2021511,
            "dinheiro": false
        },
        {
            "type": "node",
            "id": 3633622090,
            "lat": -8.9232947,
            "lon": 13.1985452,
            "tags": {
                "addr:city": "Luanda",
                "addr:street": "Via AL16",
                "amenity": "bank",
                "name": "Banco de Negócios Internacional (BNI)"
            },
            "dinheiro": true
        },
        {
            "type": "node",
            "id": 3643707386,
            "lat": -8.9220322,
            "lon": 13.170831,
            "tags": {
                "addr:city": "Talatona, Luanda",
                "addr:housenumber": "R/C, Loja B",
                "addr:street": "Via S8, Condomínio Dolce Vita, Lote 1",
                "amenity": "bank",
                "atm": "yes",
                "name": "Access Bank - Agência Dolce Vita"
            },
            "dinheiro": false
        },
        {
            "type": "node",
            "id": 3643795218,
            "lat": -8.9192215,
            "lon": 13.1848888,
            "tags": {
                "amenity": "bank",
                "name": "Banco Angolano de Investimentos (BAI)"
            },
            "dinheiro": true
        },
        {
            "type": "node",
            "id": 3694022740,
            "lat": -8.9236811,
            "lon": 13.1866526,
            "tags": {
                "amenity": "bank",
                "branch": "Angola (SBA)",
                "brand": "Standard Bank",
                "brand:wikidata": "Q1576610",
                "name": "Standard Bank"
            },
            "dinheiro": false
        },
        {
            "type": "node",
            "id": 3694288015,
            "lat": -8.826299,
            "lon": 13.2474196,
            "tags": {
                "addr:city": "Luanda",
                "addr:street": "Rua G. João de Almeida",
                "amenity": "bank",
                "name": "Banco BIC"
            },
            "dinheiro": true
        },
        {
            "type": "node",
            "id": 3694307679,
            "lat": -8.8113102,
            "lon": 13.252633,
            "dinheiro": false
        },
        {
            "type": "node",
            "id": 3694307681,
            "lat": -8.8114935,
            "lon": 13.2552148,
            "tags": {
                "amenity": "bank",
                "name": "Banco Millennium Atlântico"
            },
            "dinheiro": true
        },
        {
            "type": "node",
            "id": 3694307682,
            "lat": -8.8114659,
            "lon": 13.2550041,
            "tags": {
                "addr:city": "Luanda",
                "addr:street": "Rua Ndunduma",
                "amenity": "bank",
                "name": "Banco de Poupança e Crédito (BPC)"
            },
            "dinheiro": false
        },
        {
            "type": "node",
            "id": 3694307684,
            "lat": -8.8112521,
            "lon": 13.2562172,
            "tags": {
                "addr:city": "Luanda",
                "addr:street": "Rua Ndunduma",
                "amenity": "bank",
                "name": "Banco BIC Angola"
            },
            "dinheiro": true
        },
        {
            "type": "node",
            "id": 3694307686,
            "lat": -8.8113068,
            "lon": 13.2565904,
            "tags": {
                "amenity": "bank",
                "name": "Banco Espírito Santo Angola (BESA)"
            },
            "dinheiro": false
        },
        {
            "type": "node",
            "id": 3741852986,
            "lat": -8.8105568,
            "lon": 13.2411509,
            "tags": {
                "addr:city": "Luanda",
                "addr:street": "Gamal Abdel Nassal",
                "amenity": "bank",
                "atm": "yes",
                "brand": "Standard Chartered",
                "brand:wikidata": "Q548278",
                "name": "Standard Chartered",
                "opening_hours": "Mo-Su 08:00-15:00",
                "phone": "222 636 800"
            },
            "dinheiro": true
        },
        {
            "type": "node",
            "id": 3742569643,
            "lat": -8.9182448,
            "lon": 13.1875943,
            "dinheiro": false
        },
        {
            "type": "node",
            "id": 3742569644,
            "lat": -8.918347,
            "lon": 13.1873902,
            "dinheiro": true
        },
        {
            "type": "node",
            "id": 3742579038,
            "lat": -8.9214307,
            "lon": 13.1887379,
            "tags": {
                "amenity": "bank",
                "atm": "yes",
                "name": "Standard Bank Angola (SBA)"
            },
            "dinheiro": false
        },
        {
            "type": "node",
            "id": 3768996794,
            "lat": -8.8261,
            "lon": 13.2443474,
            "tags": {
                "addr:city": "Luanda",
                "addr:street": "Avenida Ho Chi Minh",
                "amenity": "bank",
                "atm": "yes",
                "name": "Banco Angolano de Investimentos (BAI)",
                "operator": "BAI"
            },
            "dinheiro": true
        },
        {
            "type": "node",
            "id": 3768996795,
            "lat": -8.8375151,
            "lon": 13.2350832,
            "tags": {
                "amenity": "bank",
                "atm": "yes",
                "name": "Banco Angolano de Investimentos (BAI)"
            },
            "dinheiro": false
        },
        {
            "type": "node",
            "id": 3786840783,
            "lat": -8.8444782,
            "lon": 13.233102,
            "dinheiro": true
        },
        {
            "type": "node",
            "id": 3813099268,
            "lat": -8.9181357,
            "lon": 13.1949962,
            "tags": {
                "addr:city": "Luanda",
                "amenity": "bank",
                "name": "Banco Angolano de Investimentos (BAI)"
            },
            "dinheiro": false
        },
        {
            "type": "node",
            "id": 3873821113,
            "lat": -8.8965999,
            "lon": 13.2295398,
            "tags": {
                "addr:city": "Luanda",
                "amenity": "bank",
                "atm": "yes",
                "name": "Banco Millennium Atlântico"
            },
            "dinheiro": true
        },
        {
            "type": "node",
            "id": 3886623402,
            "lat": -8.8195805,
            "lon": 13.2368335,
            "tags": {
                "amenity": "bank",
                "atm": "yes",
                "name": "Banco Millennium Atlântico"
            },
            "dinheiro": false
        },
        {
            "type": "node",
            "id": 3908718133,
            "lat": -8.8130742,
            "lon": 13.2535424,
            "tags": {
                "amenity": "bank",
                "atm": "yes",
                "name": "Banco Millennium Atlântico"
            },
            "dinheiro": true
        },
        {
            "type": "node",
            "id": 4075503794,
            "lat": -8.8232506,
            "lon": 13.2458074,
            "tags": {
                "amenity": "bank",
                "atm": "yes",
                "name": "Banco Millennium Atlântico"
            },
            "dinheiro": false
        },
        {
            "type": "node",
            "id": 4189227407,
            "lat": -8.8609801,
            "lon": 13.3038005,
            "tags": {
                "addr:city": "Grafanil - Palanca",
                "addr:street": "Av. Deolinda Rodrigues (ex Estrada de Catete)",
                "amenity": "bank",
                "atm": "yes",
                "name": "Banco de Poupança e Crédito (BPC) - Grafanil",
                "operator": "BPC - Banco de Poupança e Credito"
            },
            "dinheiro": true
        },
        {
            "type": "node",
            "id": 4189243258,
            "lat": -8.8200126,
            "lon": 13.2395864,
            "tags": {
                "addr:city": "Luanda",
                "addr:street": "Avenida Commandante Che Guevara",
                "amenity": "bank",
                "atm": "yes",
                "name": "Banco de Negócios Internacional (BNI) Edifício Sede",
                "operator": "Banco BNI"
            },
            "dinheiro": false
        },
        {
            "type": "node",
            "id": 4189768200,
            "lat": -8.8159682,
            "lon": 13.2441325,
            "tags": {
                "addr:city": "Luanda",
                "addr:housenumber": "144",
                "addr:street": "Rua Cónego Manuel das Neves",
                "amenity": "bank",
                "atm": "yes",
                "description": "http://www.atlantico.ao/",
                "name": "Banco Millenium Atlântico - Cruzeiro",
                "operator": "BMA"
            },
            "dinheiro": true
        },
        {
            "type": "node",
            "id": 4189768208,
            "lat": -8.8192818,
            "lon": 13.2390609,
            "tags": {
                "addr:city": "Luanda",
                "addr:street": "Avenida Commandante Che Guevara (Ex General Carmona)",
                "amenity": "bank",
                "atm": "yes",
                "name": "Banco Millennium Atlântico",
                "operator": "BMA"
            },
            "dinheiro": false
        },
        {
            "type": "node",
            "id": 4189842662,
            "lat": -8.8197036,
            "lon": 13.2425398,
            "dinheiro": true
        },
        {
            "type": "node",
            "id": 4189842663,
            "lat": -8.8184462,
            "lon": 13.242814,
            "tags": {
                "addr:city": "Luanda",
                "addr:street": "Rua Frederick Welwitcha",
                "amenity": "bank",
                "atm": "yes",
                "name": "Banco Yetu - Agência Sede",
                "operator": "Banco Yetu"
            },
            "dinheiro": false
        },
        {
            "type": "node",
            "id": 4189842672,
            "lat": -8.8179236,
            "lon": 13.2473293,
            "tags": {
                "addr:city": "Luanda",
                "addr:street": "Alameda Ho Chi Minh (Ex Alameda Manuel Van Dunem)",
                "amenity": "bank",
                "atm": "yes",
                "name": "Banco de Poupança e Crédito (BPC)",
                "operator": "BPC"
            },
            "dinheiro": true
        },
        {
            "type": "node",
            "id": 4191275069,
            "lat": -8.8168468,
            "lon": 13.2428015,
            "tags": {
                "addr:city": "Luanda",
                "addr:street": "Avenida Comandante Valódia",
                "amenity": "bank",
                "atm": "yes",
                "name": "Banco BIC Angola - Agência Kinaxixi"
            },
            "dinheiro": false
        },
        {
            "type": "node",
            "id": 4191275889,
            "lat": -8.8167964,
            "lon": 13.2425198,
            "tags": {
                "addr:city": "Luanda",
                "addr:street": "Avenida Comandante Valódia",
                "amenity": "bank",
                "atm": "yes",
                "name": "Banco Millennium Atlântico"
            },
            "dinheiro": true
        },
        {
            "type": "node",
            "id": 4191281333,
            "lat": -8.8196722,
            "lon": 13.2462588,
            "tags": {
                "addr:city": "Luanda",
                "amenity": "bank",
                "atm": "yes",
                "name": "Banco de Poupança e Crédito (BPC)"
            },
            "dinheiro": false
        },
        {
            "type": "node",
            "id": 4191282603,
            "lat": -8.8198975,
            "lon": 13.2461515,
            "tags": {
                "addr:city": "Luanda",
                "amenity": "bank",
                "atm": "yes",
                "name": "Banco Angolano de Investimentos (BAI)"
            },
            "dinheiro": true
        },
        {
            "type": "node",
            "id": 4205489091,
            "lat": -8.8200317,
            "lon": 13.2395198,
            "tags": {
                "addr:city": "Luanda",
                "addr:street": "Avenida Commandante Che Guevara (Ex General Carmona)",
                "amenity": "bank",
                "name": "Banco de Negócios Internacional (BNI) Sede",
                "website": "http://www.bni.co.ao"
            },
            "dinheiro": false
        },
        {
            "type": "node",
            "id": 4207420246,
            "lat": -8.905987,
            "lon": 13.3747088,
            "dinheiro": true
        },
        {
            "type": "node",
            "id": 4209067637,
            "lat": -8.8189066,
            "lon": 13.2429036,
            "dinheiro": false
        },
        {
            "type": "node",
            "id": 4212676695,
            "lat": -8.8200259,
            "lon": 13.2395565,
            "dinheiro": true
        },
        {
            "type": "node",
            "id": 4215457789,
            "lat": -8.8222471,
            "lon": 13.244157,
            "dinheiro": false
        },
        {
            "type": "node",
            "id": 4261412646,
            "lat": -8.8290251,
            "lon": 13.2400545,
            "dinheiro": true
        },
        {
            "type": "node",
            "id": 4261530433,
            "lat": -8.8107759,
            "lon": 13.238622,
            "tags": {
                "addr:city": "Luanda",
                "addr:street": "Avenida Rainha Ginga",
                "amenity": "bank",
                "name": "Banco de Poupança e Crédito (BPC)"
            },
            "dinheiro": false
        },
        {
            "type": "node",
            "id": 4261530534,
            "lat": -8.8090414,
            "lon": 13.2390402,
            "tags": {
                "addr:city": "Luanda",
                "amenity": "bank",
                "brand": "Banco de Fomento Angola",
                "brand:en": "Angola Development Bank (BFA)",
                "brand:es": "Banco de Fomento Angola (BFA)",
                "brand:short": "BFA",
                "brand:wikidata": "Q806197",
                "brand:wikipedia": "de:Banco de Fomento Angola",
                "name": "Banco de Fomento Angola",
                "name:de": "Angola Entwicklungsbank (BFA)",
                "name:en": "Angola Development Bank (BFA)",
                "name:es": "Banco de Fomento Angola (BFA)",
                "name:fr": "Banque de Developpement Angola (BFA)",
                "name:it": "Banca di Sviluppo Angola (BFA)",
                "name:nl": "Angola Ontwikkelingsbank (BFA)",
                "name:pl": "Bank Rozwoju Angola (BFA)",
                "name:pt": "Banco de Fomento Angola (BFA)",
                "name:ru": "Банк Развития Ангола (БФА)",
                "short_name": "BFA"
            },
            "dinheiro": true
        },
        {
            "type": "node",
            "id": 4261530535,
            "lat": -8.8106939,
            "lon": 13.2386986,
            "dinheiro": false
        },
        {
            "type": "node",
            "id": 4261530537,
            "lat": -8.8105348,
            "lon": 13.2374776,
            "tags": {
                "addr:city": "Luanda",
                "amenity": "bank",
                "name": "Banco BIC Angola"
            },
            "dinheiro": true
        },
        {
            "type": "node",
            "id": 4261530538,
            "lat": -8.8108723,
            "lon": 13.2372246,
            "tags": {
                "amenity": "bank",
                "name": "FiniBanco Angola"
            },
            "dinheiro": false
        },
        {
            "type": "node",
            "id": 4261679436,
            "lat": -8.8101223,
            "lon": 13.2492574,
            "dinheiro": true
        },
        {
            "type": "node",
            "id": 4272785692,
            "lat": -8.9048621,
            "lon": 13.2351127,
            "dinheiro": false
        },
        {
            "type": "node",
            "id": 4306547644,
            "lat": -8.5808041,
            "lon": 13.6619297,
            "tags": {
                "addr:city": "Caxito",
                "amenity": "bank",
                "name": "Banco BIC Angola"
            },
            "dinheiro": true
        },
        {
            "type": "node",
            "id": 4306547645,
            "lat": -8.5808849,
            "lon": 13.6622472,
            "tags": {
                "addr:city": "Caxito",
                "amenity": "bank",
                "name": "Banco de Poupança e Crédito (BPC)"
            },
            "dinheiro": false
        },
        {
            "type": "node",
            "id": 4306744191,
            "lat": -8.5815842,
            "lon": 13.6607087,
            "tags": {
                "addr:city": "Caxito",
                "amenity": "bank",
                "name": "Banco Millennium Atlântico"
            },
            "dinheiro": true
        },
        {
            "type": "node",
            "id": 4314768804,
            "lat": -8.8373153,
            "lon": 13.2360576,
            "tags": {
                "addr:city": "Luanda",
                "addr:street": "Avenida Ho Chi Minh",
                "amenity": "bank",
                "name": "Standard Bank Angola (SBA)"
            },
            "dinheiro": false
        },
        {
            "type": "node",
            "id": 4321805504,
            "lat": -8.8086831,
            "lon": 13.2382096,
            "dinheiro": true
        },
        {
            "type": "node",
            "id": 4324765984,
            "lat": -8.8049822,
            "lon": 13.3033852,
            "dinheiro": false
        },
        {
            "type": "node",
            "id": 4327289605,
            "lat": -8.7823181,
            "lon": 13.3136963,
            "tags": {
                "amenity": "bank",
                "name": "Banco Angolano de Investimentos (BAI)"
            },
            "dinheiro": true
        },
        {
            "type": "node",
            "id": 4340771274,
            "lat": -8.8126322,
            "lon": 13.2276682,
            "tags": {
                "addr:city": "Luanda",
                "addr:housenumber": "79/83",
                "addr:street": "Avenida Rainha Ginga",
                "amenity": "bank",
                "atm": "yes",
                "name": "Banco de Comércio e Indústria (BCI)",
                "operator": "Banco BCI",
                "website": "http://www.bci.co.ao"
            },
            "dinheiro": false
        },
        {
            "type": "node",
            "id": 4392744535,
            "lat": -8.9220533,
            "lon": 13.1715812,
            "tags": {
                "addr:city": "Luanda",
                "amenity": "bank",
                "atm": "yes",
                "name": "Banco Económico - Agência Dolce Vita"
            },
            "dinheiro": true
        },
        {
            "type": "node",
            "id": 4471381493,
            "lat": -8.8156322,
            "lon": 13.236055,
            "tags": {
                "addr:city": "Luanda",
                "addr:street": "Rua da Missão",
                "amenity": "bank",
                "branch": "(BAI) Agência da Missão",
                "brand": "BAI",
                "brand:wikidata": "Q806172",
                "name": "BAI",
                "official_name": "Banco Angolano de Investimentos",
                "opening_hours": "Mo-Fr 08:00-15:00",
                "operator": "BANCO BAI",
                "website": "https://bancobai.ao/"
            },
            "dinheiro": false
        },
        {
            "type": "node",
            "id": 4488774790,
            "lat": -8.9044023,
            "lon": 13.1972135,
            "tags": {
                "amenity": "bank",
                "name": "Banco Keve",
                "opening_hours": "Mo-Fr 08:00-15:00",
                "operator": "Keve",
                "website": "https://www.bancokeve.ao/"
            },
            "dinheiro": true
        },
        {
            "type": "node",
            "id": 4506624894,
            "lat": -8.8101011,
            "lon": 13.2489389,
            "tags": {
                "amenity": "bank",
                "name": "Banco Angolano de Investimentos (BAI)",
                "website": "https://bancobai.ao/"
            },
            "dinheiro": false
        },
        {
            "type": "node",
            "id": 4635221584,
            "lat": -8.9395766,
            "lon": 13.1741639,
            "tags": {
                "addr:city": "Luanda",
                "addr:street": "Avenida do Patriota",
                "amenity": "bank",
                "name": "Banco Comercial Angolano (BCA) Agencia e Centro de Empresas - Patriota",
                "website": "https://www.bca.co.ao/"
            },
            "dinheiro": true
        },
        {
            "type": "node",
            "id": 4635858763,
            "lat": -8.9494895,
            "lon": 13.188195,
            "dinheiro": false
        },
        {
            "type": "node",
            "id": 4635858764,
            "lat": -8.9497123,
            "lon": 13.1885329,
            "tags": {
                "addr:city": "Luanda",
                "addr:street": "Avenida \"O Lar do Patriota\"",
                "amenity": "bank",
                "name": "Banco Económico (BE)"
            },
            "dinheiro": true
        },
        {
            "type": "node",
            "id": 4635858769,
            "lat": -8.9489163,
            "lon": 13.1859408,
            "dinheiro": false
        },
        {
            "type": "node",
            "id": 4635896340,
            "lat": -8.9528181,
            "lon": 13.1957545,
            "dinheiro": true
        },
        {
            "type": "node",
            "id": 4635896341,
            "lat": -8.9526639,
            "lon": 13.1954084,
            "tags": {
                "addr:city": "Luanda",
                "addr:street": "Avenida do Patriota",
                "amenity": "bank",
                "name": "Banco Keve"
            },
            "dinheiro": false
        },
        {
            "type": "node",
            "id": 4641433016,
            "lat": -8.9519736,
            "lon": 13.1938226,
            "tags": {
                "addr:city": "Luanda",
                "addr:street": "Avenida do Patriota",
                "amenity": "bank",
                "name": "Banco de Negócios Internacional (BNI)"
            },
            "dinheiro": true
        },
        {
            "type": "node",
            "id": 4641433017,
            "lat": -8.9521272,
            "lon": 13.1941654,
            "tags": {
                "addr:city": "Luanda",
                "addr:street": "Avenida \"O Lar do Patriota\"",
                "amenity": "bank",
                "name": "Access Bank"
            },
            "dinheiro": false
        },
        {
            "type": "node",
            "id": 4641433025,
            "lat": -8.9540909,
            "lon": 13.1975341,
            "tags": {
                "addr:city": "Luanda",
                "addr:street": "Avenida do Patriota",
                "amenity": "bank",
                "name": "Banco de Comércio e Indústria (BCI)"
            },
            "dinheiro": true
        },
        {
            "type": "node",
            "id": 4641433028,
            "lat": -8.9541571,
            "lon": 13.1976628,
            "tags": {
                "addr:city": "Luanda",
                "addr:street": "Avenida do Patriota",
                "amenity": "bank",
                "name": "Banco de Poupança e Crédito (BPC) Agência Lar Patriota"
            },
            "dinheiro": false
        },
        {
            "type": "node",
            "id": 4641433031,
            "lat": -8.9544804,
            "lon": 13.1982797,
            "dinheiro": true
        },
        {
            "type": "node",
            "id": 4641433074,
            "lat": -8.9709314,
            "lon": 13.2087687,
            "tags": {
                "addr:city": "Luanda",
                "addr:street": "Avenida do Patriota",
                "amenity": "bank",
                "name": "Banco BIC"
            },
            "dinheiro": false
        },
        {
            "type": "node",
            "id": 4641549364,
            "lat": -8.9739189,
            "lon": 13.2386991,
            "tags": {
                "addr:city": "Luanda",
                "addr:street": "Via Expressa Fidel Castro Ruz",
                "amenity": "bank",
                "name": "Banco de Poupança e Crédito (BPC)"
            },
            "dinheiro": true
        },
        {
            "type": "node",
            "id": 4658990603,
            "lat": -8.9212962,
            "lon": 13.2023511,
            "tags": {
                "amenity": "bank",
                "brand": "Western Union",
                "brand:wikidata": "Q861042",
                "name": "Western Union"
            },
            "dinheiro": false
        },
        {
            "type": "node",
            "id": 4678512066,
            "lat": -8.9035123,
            "lon": 13.1912313,
            "tags": {
                "addr:city": "Luanda",
                "addr:street": "Avenida Pedro de C. Vandunem-Loy",
                "amenity": "bank",
                "name": "Banco Millennium Atlântico"
            },
            "dinheiro": true
        },
        {
            "type": "node",
            "id": 4680082411,
            "lat": -8.8574819,
            "lon": 13.2062276,
            "dinheiro": false
        },
        {
            "type": "node",
            "id": 4735306443,
            "lat": -8.8409593,
            "lon": 13.2135592,
            "tags": {
                "amenity": "bank",
                "name": "Banco Millenium Atlântico"
            },
            "dinheiro": true
        },
        {
            "type": "node",
            "id": 4737271158,
            "lat": -8.825387,
            "lon": 13.2244152,
            "tags": {
                "addr:city": "Luanda",
                "addr:street": "Rua dos Heróis (ex Rua da Samba)",
                "amenity": "bank",
                "atm": "yes",
                "drive_through": "no",
                "name": "Banco Millenium Atlântico"
            },
            "dinheiro": false
        },
        {
            "type": "node",
            "id": 4737271172,
            "lat": -8.8258614,
            "lon": 13.2240102,
            "tags": {
                "addr:city": "Luanda",
                "addr:street": "Rua dos Heróis (ex Rua da Samba)",
                "amenity": "bank",
                "name": "BancoEconómico - Agencia Bairro Azul"
            },
            "dinheiro": true
        },
        {
            "type": "node",
            "id": 4737271194,
            "lat": -8.8268659,
            "lon": 13.2231747,
            "tags": {
                "addr:city": "Luanda",
                "addr:street": "Rua dos Heróis (ex Rua da Samba)",
                "amenity": "bank",
                "name": "Banco de Comércio e Indústria (BCI)"
            },
            "dinheiro": false
        },
        {
            "type": "node",
            "id": 4737271196,
            "lat": -8.8270515,
            "lon": 13.2230473,
            "tags": {
                "addr:city": "Luanda",
                "addr:street": "Rua dos Heróis (ex Rua da Samba)",
                "amenity": "bank",
                "name": "Banco de Poupança e Crédito (BPC)"
            },
            "dinheiro": true
        },
        {
            "type": "node",
            "id": 4737271364,
            "lat": -8.8275153,
            "lon": 13.2226745,
            "tags": {
                "addr:city": "Luanda",
                "addr:street": "Rua dos Heróis (ex Rua da Samba)",
                "amenity": "bank",
                "name": "Banco Caixa Geral Angola (BCGA)"
            },
            "dinheiro": false
        },
        {
            "type": "node",
            "id": 4737271365,
            "lat": -8.827559,
            "lon": 13.2226141,
            "tags": {
                "amenity": "bank",
                "name": "Banco de Poupança de Crédito (BPC) Agencia Samba"
            },
            "dinheiro": true
        },
        {
            "type": "node",
            "id": 4737271366,
            "lat": -8.8277631,
            "lon": 13.2224639,
            "tags": {
                "amenity": "bank",
                "name": "Banco Millenium Atlântico"
            },
            "dinheiro": false
        },
        {
            "type": "node",
            "id": 4738111143,
            "lat": -8.8284935,
            "lon": 13.2217983,
            "dinheiro": true
        },
        {
            "type": "node",
            "id": 4738111149,
            "lat": -8.8287555,
            "lon": 13.2216407,
            "tags": {
                "addr:city": "Luanda",
                "addr:street": "Rua dos Heróis (ex Rua da Samba)",
                "amenity": "bank",
                "name": "Banco Angolano de Investimentos (BAI)"
            },
            "dinheiro": false
        },
        {
            "type": "node",
            "id": 4770176783,
            "lat": -8.89454,
            "lon": 13.2293907,
            "tags": {
                "amenity": "bank",
                "name": "Banco BIC"
            },
            "dinheiro": true
        },
        {
            "type": "node",
            "id": 4775521526,
            "lat": -8.8280164,
            "lon": 13.2302995,
            "dinheiro": false
        },
        {
            "type": "node",
            "id": 4775605721,
            "lat": -8.8899961,
            "lon": 13.2019713,
            "tags": {
                "addr:city": "Luanda",
                "addr:street": "Avenida 21 de Janeiro",
                "amenity": "bank",
                "name": "Banco Banco de Fomento Angola (BFA)",
                "name:pt": "BFA"
            },
            "dinheiro": true
        },
        {
            "type": "node",
            "id": 4777736119,
            "lat": -8.8819704,
            "lon": 13.2081483,
            "tags": {
                "addr:city": "Luanda",
                "addr:street": "Avenida 21 de Janeiro",
                "amenity": "bank",
                "name": "Banco Comercial do Huambo (BCH)"
            },
            "dinheiro": false
        },
        {
            "type": "node",
            "id": 4778716975,
            "lat": -8.8493842,
            "lon": 13.2263313,
            "tags": {
                "addr:city": "Luanda",
                "addr:street": "Rua 21 de Janeiro",
                "amenity": "bank",
                "name": "Banco de Poupança e Crédito (BPC) 21 de Janeiro"
            },
            "dinheiro": true
        },
        {
            "type": "node",
            "id": 4778716976,
            "lat": -8.8469159,
            "lon": 13.2319016,
            "tags": {
                "addr:city": "Luanda",
                "addr:street": "Rua 21 de Janeiro",
                "amenity": "bank",
                "name": "Banco BIC"
            },
            "dinheiro": false
        },
        {
            "type": "node",
            "id": 4778716977,
            "lat": -8.8465846,
            "lon": 13.2325982,
            "tags": {
                "addr:city": "Luanda",
                "addr:street": "Rua 21 de Janeiro",
                "amenity": "bank",
                "name": "Banco Angolano de Investimentos (BAI) Agência Aeroporto"
            },
            "dinheiro": true
        },
        {
            "type": "node",
            "id": 4778716978,
            "lat": -8.8466187,
            "lon": 13.2325083,
            "tags": {
                "addr:city": "Luanda",
                "addr:street": "Rua 21 de Janeiro",
                "amenity": "bank",
                "name": "Banco Keve"
            },
            "dinheiro": false
        },
        {
            "type": "node",
            "id": 4779215952,
            "lat": -8.8373017,
            "lon": 13.2371335,
            "tags": {
                "addr:city": "Luanda",
                "addr:street": "Avenida Ho Chi Minh",
                "amenity": "bank",
                "name": "Banco Económico - Ho Chi Min"
            },
            "dinheiro": true
        },
        {
            "type": "node",
            "id": 4781761090,
            "lat": -8.9027165,
            "lon": 13.1961849,
            "tags": {
                "addr:city": "Luanda",
                "addr:street": "Avenida Pedro de C. Vandunem-Loy",
                "amenity": "bank",
                "name": "Banco de Poupança e Crédito (BPC)"
            },
            "dinheiro": false
        },
        {
            "type": "node",
            "id": 4781761107,
            "lat": -8.9031913,
            "lon": 13.1911686,
            "tags": {
                "amenity": "bank",
                "name": "Banco Millenium Atlântico"
            },
            "dinheiro": true
        },
        {
            "type": "node",
            "id": 4781901335,
            "lat": -8.9190452,
            "lon": 13.1798351,
            "tags": {
                "addr:city": "Luanda",
                "amenity": "bank",
                "name": "Banco de Comércio e Indústria (BCI)"
            },
            "dinheiro": false
        },
        {
            "type": "node",
            "id": 4783358595,
            "lat": -8.8192801,
            "lon": 13.228463,
            "tags": {
                "addr:city": "Luanda",
                "addr:street": "Avenida do 1º Congresso do MPLA (ex Avenida Alvaro Ferreira)",
                "amenity": "bank",
                "name": "Banco de Comércio e Indústria (BCI)"
            },
            "dinheiro": true
        },
        {
            "type": "node",
            "id": 4783500211,
            "lat": -8.8272226,
            "lon": 13.2228644,
            "tags": {
                "addr:city": "Luanda",
                "addr:street": "Rua dos Heróis (ex Rua da Samba)",
                "amenity": "bank",
                "name": "FiniBanco Angola - Centro de Empresas"
            },
            "dinheiro": false
        },
        {
            "type": "node",
            "id": 4783570642,
            "lat": -8.8327819,
            "lon": 13.2183341,
            "dinheiro": true
        },
        {
            "type": "node",
            "id": 4783570661,
            "lat": -8.8405663,
            "lon": 13.213444,
            "tags": {
                "addr:city": "Luanda",
                "addr:street": "Estrada da Samba",
                "amenity": "bank",
                "name": "Banco de Comércio e Indústria (BCI)"
            },
            "dinheiro": false
        },
        {
            "type": "node",
            "id": 4786527034,
            "lat": -8.8157722,
            "lon": 13.2365861,
            "tags": {
                "addr:city": "Luanda",
                "addr:street": "Rua da Missão",
                "amenity": "bank",
                "name": "Banco Comercial Angolano (BCA)"
            },
            "dinheiro": true
        },
        {
            "type": "node",
            "id": 4786527042,
            "lat": -8.8154856,
            "lon": 13.2370963,
            "dinheiro": false
        },
        {
            "type": "node",
            "id": 4786527047,
            "lat": -8.8152617,
            "lon": 13.2363198,
            "tags": {
                "amenity": "bank",
                "name": "Banco de Negócios Internacional (BNI)"
            },
            "dinheiro": true
        },
        {
            "type": "node",
            "id": 4786527056,
            "lat": -8.8149661,
            "lon": 13.2341191,
            "tags": {
                "addr:city": "Luanda",
                "addr:street": "Rua da Missão",
                "amenity": "bank",
                "name": "Banco Millenium Atlântico"
            },
            "dinheiro": false
        },
        {
            "type": "node",
            "id": 4786668648,
            "lat": -8.8163629,
            "lon": 13.2312939,
            "tags": {
                "addr:city": "Luanda",
                "addr:street": "Rua Pedro Felix Machado (ex Neves Pereira)",
                "amenity": "bank",
                "name": "Banco BIC Angola"
            },
            "dinheiro": true
        },
        {
            "type": "node",
            "id": 4787590130,
            "lat": -8.8229062,
            "lon": 13.2294008,
            "tags": {
                "amenity": "bank",
                "name": "Banco de Comércio e Indústria (BCI)"
            },
            "dinheiro": false
        },
        {
            "type": "node",
            "id": 4787690009,
            "lat": -8.8231695,
            "lon": 13.2297855,
            "tags": {
                "addr:city": "Luanda",
                "addr:street": "Rua Guilherme Capelo",
                "amenity": "bank",
                "name": "Banco BIC Angola"
            },
            "dinheiro": true
        },
        {
            "type": "node",
            "id": 4787692350,
            "lat": -8.8244835,
            "lon": 13.2330733,
            "tags": {
                "amenity": "bank",
                "name": "Banco Comercial Angolano (BCA)"
            },
            "dinheiro": false
        },
        {
            "type": "node",
            "id": 4787692351,
            "lat": -8.8245238,
            "lon": 13.2331364,
            "tags": {
                "addr:city": "Luanda",
                "addr:street": "Rua Kruame Nkrumah",
                "amenity": "bank",
                "branch": "(BPC) Centro de Negócios Nkrumah",
                "brand": "BPC",
                "brand:wikidata": "Q4854132",
                "name": "BPC",
                "official_name": "Banco de Poupança e Crédito"
            },
            "dinheiro": true
        },
        {
            "type": "node",
            "id": 4787692363,
            "lat": -8.8257156,
            "lon": 13.2362205,
            "tags": {
                "addr:city": "Luanda",
                "addr:street": "Rua Bento Banha Cardoso",
                "amenity": "bank",
                "name": "Banco Millenium Atlântico"
            },
            "dinheiro": false
        },
        {
            "type": "node",
            "id": 4787692372,
            "lat": -8.8254629,
            "lon": 13.2381267,
            "tags": {
                "addr:city": "Luanda",
                "addr:street": "Rua Comandante Gika (Ex General Norton de Matos)",
                "amenity": "bank",
                "name": "Banco Millenium Atlântico"
            },
            "dinheiro": true
        },
        {
            "type": "node",
            "id": 4787767374,
            "lat": -8.821581,
            "lon": 13.2408711,
            "tags": {
                "addr:city": "Luanda",
                "addr:street": "Rua Major Marcelino Dias (ex Barbosa do Bocage)",
                "amenity": "bank",
                "name": "Banco BIC Angola"
            },
            "dinheiro": false
        },
        {
            "type": "node",
            "id": 4792601453,
            "lat": -8.8543293,
            "lon": 13.2077114,
            "tags": {
                "amenity": "bank",
                "name": "Banco Caixa Geral Angola (BCGA)"
            },
            "dinheiro": true
        },
        {
            "type": "node",
            "id": 4801793636,
            "lat": -8.836627,
            "lon": 13.2301085,
            "tags": {
                "addr:city": "Luanda",
                "addr:street": "Avenida Comandate Gika",
                "amenity": "bank",
                "branch": "(BAI) Agência Girassol",
                "brand": "BAI",
                "brand:wikidata": "Q806172",
                "name": "BAI",
                "official_name": "Banco Angolano de Investimentos"
            },
            "dinheiro": false
        },
        {
            "type": "node",
            "id": 4802062595,
            "lat": -8.829357,
            "lon": 13.2300515,
            "tags": {
                "addr:city": "Luanda",
                "addr:street": "Rua Doutor José Maria Antunes",
                "amenity": "bank",
                "atm": "yes",
                "brand": "BAI",
                "brand:wikidata": "Q806172",
                "internet_access": "yes",
                "name": "BAI",
                "official_name": "Banco Angolano de Investimentos",
                "opening_hours": "Mo-Fr 08:00-15:00",
                "opening_hours:covid19": "off",
                "wheelchair": "yes"
            },
            "dinheiro": true
        },
        {
            "type": "node",
            "id": 4834684897,
            "lat": -8.8940103,
            "lon": 13.1939933,
            "tags": {
                "addr:city": "Luanda",
                "addr:street": "Avenida 21 de Janeiro",
                "amenity": "bank",
                "name": "Banco Angolano de Investimentos (BAI)"
            },
            "dinheiro": false
        },
        {
            "type": "node",
            "id": 4834685424,
            "lat": -8.8949053,
            "lon": 13.1911086,
            "tags": {
                "addr:city": "Luanda",
                "addr:street": "Avenida 21 de Janeiro",
                "amenity": "bank",
                "name": "Banco de Poupança e Crédito (BPC)"
            },
            "dinheiro": true
        },
        {
            "type": "node",
            "id": 4836777748,
            "lat": -8.8301847,
            "lon": 13.2304098,
            "tags": {
                "addr:city": "Luanda",
                "addr:street": "Avenida P Marien Ngouabi (ex António Barroso)",
                "amenity": "bank",
                "brand": "BPC",
                "brand:wikidata": "Q4854132",
                "name": "BPC",
                "official_name": "Banco de Poupança e Crédito"
            },
            "dinheiro": false
        },
        {
            "type": "node",
            "id": 4855309440,
            "lat": -8.8915627,
            "lon": 13.1992159,
            "tags": {
                "addr:city": "Luanda",
                "addr:street": "Avenida 21 de Janeiro",
                "amenity": "bank",
                "name": "Banco Millenium Atlântico"
            },
            "dinheiro": true
        },
        {
            "type": "node",
            "id": 4855309443,
            "lat": -8.891597,
            "lon": 13.1991268,
            "tags": {
                "addr:city": "Luanda",
                "addr:street": "Avenida 21 de Janeiro",
                "amenity": "bank",
                "name": "Banco Económico - Agência Morro Bento",
                "opening_hours": "Mo-Fr 08:00-18:00",
                "website": "http://www.bancoeconomico.com"
            },
            "dinheiro": false
        },
        {
            "type": "node",
            "id": 4855503031,
            "lat": -8.8762293,
            "lon": 13.2102246,
            "tags": {
                "addr:city": "Luanda",
                "addr:street": "Avenida 21 de Janeiro",
                "amenity": "bank",
                "name": "Banco Millenium Atlântico"
            },
            "dinheiro": true
        },
        {
            "type": "node",
            "id": 4855544501,
            "lat": -8.8715798,
            "lon": 13.211492,
            "dinheiro": false
        },
        {
            "type": "node",
            "id": 4859770429,
            "lat": -8.8167771,
            "lon": 13.2292573,
            "tags": {
                "amenity": "bank",
                "atm": "yes",
                "name": "Banco Económico - Agência Sede",
                "opening_hours": "Mo-Sa 08:00-15:00",
                "operator": "Banco Economico"
            },
            "dinheiro": true
        },
        {
            "type": "node",
            "id": 4892751286,
            "lat": -8.8257436,
            "lon": 13.2424361,
            "tags": {
                "addr:city": "Luanda",
                "amenity": "bank",
                "name": "Banco Millenium Atlântico"
            },
            "dinheiro": false
        },
        {
            "type": "node",
            "id": 4892751291,
            "lat": -8.8256873,
            "lon": 13.2421029,
            "tags": {
                "addr:city": "Luanda",
                "amenity": "bank",
                "name": "Banco Angolano de Investimentos (BAI)"
            },
            "dinheiro": true
        },
        {
            "type": "node",
            "id": 4893442079,
            "lat": -8.8354169,
            "lon": 13.2345629,
            "tags": {
                "addr:city": "Luanda",
                "amenity": "bank",
                "name": "Banco Keve"
            },
            "dinheiro": false
        },
        {
            "type": "node",
            "id": 4893442081,
            "lat": -8.8353321,
            "lon": 13.2346836,
            "tags": {
                "addr:city": "Luanda",
                "amenity": "bank",
                "name": "Banco Mllenium Atlântico"
            },
            "dinheiro": true
        },
        {
            "type": "node",
            "id": 4956344237,
            "lat": -8.8170013,
            "lon": 13.2373624,
            "tags": {
                "addr:street": "Avenida de Portugal",
                "amenity": "bank",
                "atm": "yes",
                "name": "Banco Millennium Atlântico"
            },
            "dinheiro": false
        },
        {
            "type": "node",
            "id": 4956358642,
            "lat": -8.8122286,
            "lon": 13.2348191,
            "tags": {
                "amenity": "bank",
                "atm": "yes",
                "name": "Banco Caixa Geral Angola (BCGA) Agência do Bungo",
                "operator": "Banco Caixa Angola"
            },
            "dinheiro": true
        },
        {
            "type": "node",
            "id": 5004236243,
            "lat": -8.9238357,
            "lon": 13.1861709,
            "tags": {
                "addr:city": "Luanda",
                "addr:street": "Via Luanda Sul",
                "amenity": "bank",
                "name": "Banco BIC Angola"
            },
            "dinheiro": false
        },
        {
            "type": "node",
            "id": 5006884378,
            "lat": -8.8081018,
            "lon": 13.2403012,
            "tags": {
                "amenity": "bank",
                "atm": "yes",
                "name": "Banco de Poupança e Crédito (BPC)"
            },
            "dinheiro": true
        },
        {
            "type": "node",
            "id": 5047645922,
            "lat": -8.9053031,
            "lon": 13.3727297,
            "dinheiro": false
        },
        {
            "type": "node",
            "id": 5148614941,
            "lat": -8.7818246,
            "lon": 13.2371785,
            "dinheiro": true
        },
        {
            "type": "node",
            "id": 5151070886,
            "lat": -8.7676649,
            "lon": 13.2555991,
            "dinheiro": false
        },
        {
            "type": "node",
            "id": 5154403250,
            "lat": -8.8151777,
            "lon": 13.2206873,
            "tags": {
                "addr:city": "Luanda",
                "addr:street": "Avenida Agostinho Neto",
                "amenity": "bank",
                "name": "Banco Caixa Geral Angola (BCGA)"
            },
            "dinheiro": true
        },
        {
            "type": "node",
            "id": 5154403265,
            "lat": -8.8150102,
            "lon": 13.2208568,
            "tags": {
                "addr:city": "Luanda",
                "addr:street": "Avenida Agostinho Neto",
                "amenity": "bank",
                "name": "Banco Caixa Geral Angola (BCGA)"
            },
            "dinheiro": false
        },
        {
            "type": "node",
            "id": 5168357834,
            "lat": -8.9471438,
            "lon": 13.1548245,
            "tags": {
                "addr:city": "Luanda",
                "addr:street": "Estrada da Samba",
                "amenity": "bank",
                "name": "Banco Millennium Atlântico"
            },
            "dinheiro": true
        },
        {
            "type": "node",
            "id": 5168357836,
            "lat": -8.9461157,
            "lon": 13.1554323,
            "tags": {
                "addr:city": "Luanda",
                "addr:street": "Estrada da Samba",
                "amenity": "bank",
                "name": "Banco de Poupança e Crédito (BPC)"
            },
            "dinheiro": false
        },
        {
            "type": "node",
            "id": 5169888254,
            "lat": -8.9400594,
            "lon": 13.1607273,
            "dinheiro": true
        },
        {
            "type": "node",
            "id": 5170525216,
            "lat": -8.8172859,
            "lon": 13.2444107,
            "tags": {
                "addr:city": "Luanda",
                "addr:street": "Avenida Comandante Valódia (ex Combatentes)",
                "amenity": "bank",
                "name": "Banco Comercial Angolano (BCA)"
            },
            "dinheiro": false
        },
        {
            "type": "node",
            "id": 5170525220,
            "lat": -8.8175511,
            "lon": 13.2454152,
            "tags": {
                "addr:city": "Luanda",
                "addr:street": "Avenida Comandante Valódia (ex Combatentes)",
                "amenity": "bank",
                "name": "Banco Caixa Geral Angola (BCGA)"
            },
            "dinheiro": true
        },
        {
            "type": "node",
            "id": 5176933390,
            "lat": -8.8371763,
            "lon": 13.2343308,
            "tags": {
                "addr:city": "Luanda",
                "addr:street": "Travessa Ho Chi Mim",
                "amenity": "bank",
                "name": "Banco de Comércio e Indústria (BCI)"
            },
            "dinheiro": false
        },
        {
            "type": "node",
            "id": 5176933417,
            "lat": -8.8381661,
            "lon": 13.2365433,
            "dinheiro": true
        },
        {
            "type": "node",
            "id": 5177628234,
            "lat": -8.8180256,
            "lon": 13.2474509,
            "dinheiro": false
        },
        {
            "type": "node",
            "id": 5177628236,
            "lat": -8.818443,
            "lon": 13.2477256,
            "tags": {
                "addr:city": "Luanda",
                "addr:street": "Avenida Comandante Valódia (ex Combatentes)",
                "amenity": "bank",
                "name": "Banco Millenium Atlântico"
            },
            "dinheiro": true
        },
        {
            "type": "node",
            "id": 5177628265,
            "lat": -8.8190658,
            "lon": 13.2504361,
            "tags": {
                "addr:city": "Luanda",
                "addr:street": "Avenida Comandante Valódia (ex Combatentes)",
                "amenity": "bank",
                "name": "BancoEconomico - Agência Valódia"
            },
            "dinheiro": false
        },
        {
            "type": "node",
            "id": 5177628288,
            "lat": -8.8191502,
            "lon": 13.251954,
            "tags": {
                "addr:city": "Luanda",
                "addr:street": "Avenida Comandante Valódia (ex Combatentes)",
                "amenity": "bank",
                "name": "Banco BIC"
            },
            "dinheiro": true
        },
        {
            "type": "node",
            "id": 5177628318,
            "lat": -8.81821,
            "lon": 13.2481308,
            "tags": {
                "addr:city": "Luanda",
                "addr:street": "Avenida Comandante Valódia (ex Combatentes)",
                "amenity": "bank",
                "name": "Banco Angolano de Investimentos (BAI)"
            },
            "dinheiro": false
        },
        {
            "type": "node",
            "id": 5177720489,
            "lat": -8.8194659,
            "lon": 13.2442714,
            "tags": {
                "addr:city": "Luanda",
                "addr:street": "Avenida Rei Katyavala (ex Coronel Artur de Paiva)",
                "amenity": "bank",
                "name": "Banco de Comércio e Indústria (BCI)"
            },
            "dinheiro": true
        },
        {
            "type": "node",
            "id": 5312471029,
            "lat": -8.9506212,
            "lon": 13.1722321,
            "dinheiro": false
        },
        {
            "type": "node",
            "id": 5494141729,
            "lat": -8.8910173,
            "lon": 13.2404208,
            "tags": {
                "addr:city": "Luanda",
                "addr:street": "Avenida Pedro de C. Vandunem-Loy",
                "amenity": "bank",
                "name": "Banco de Negócios Internacional (BNI)"
            },
            "dinheiro": true
        },
        {
            "type": "node",
            "id": 5514447496,
            "lat": -8.774359,
            "lon": 13.3720755,
            "tags": {
                "addr:city": "Luanda",
                "addr:street": "Estrada de Cacuaco",
                "amenity": "bank",
                "name": "Banco de Negócios Internacional (BNI)"
            },
            "dinheiro": false
        },
        {
            "type": "node",
            "id": 5514588777,
            "lat": -8.7757214,
            "lon": 13.3689952,
            "tags": {
                "addr:city": "Luanda",
                "addr:street": "Estrada de Cacuaco",
                "amenity": "bank",
                "name": "Banco de Poupança e Crédito (BPC)"
            },
            "dinheiro": true
        },
        {
            "type": "node",
            "id": 5514588778,
            "lat": -8.7757546,
            "lon": 13.3688208,
            "tags": {
                "addr:city": "Luanda",
                "addr:street": "Estrada de Cacuaco",
                "amenity": "bank",
                "name": "Banco Caixa Geral Angola (BCGA)"
            },
            "dinheiro": false
        },
        {
            "type": "node",
            "id": 5515160495,
            "lat": -8.7821406,
            "lon": 13.3155061,
            "dinheiro": true
        },
        {
            "type": "node",
            "id": 5536386710,
            "lat": -8.8191553,
            "lon": 13.2444517,
            "tags": {
                "addr:city": "Luanda",
                "addr:street": "Avenida Rei Katyavala (ex Coronel Artur de Paiva)",
                "amenity": "bank",
                "name": "Millennium Atlântico"
            },
            "dinheiro": false
        },
        {
            "type": "node",
            "id": 5549261731,
            "lat": -8.8109609,
            "lon": 13.2523577,
            "tags": {
                "addr:city": "Luanda",
                "amenity": "bank",
                "name": "Banco de Poupança e Crédito (BPC)"
            },
            "dinheiro": true
        },
        {
            "type": "node",
            "id": 5549261753,
            "lat": -8.8136726,
            "lon": 13.2553228,
            "tags": {
                "addr:city": "Luanda",
                "addr:street": "Cristiano dos Santos",
                "amenity": "bank",
                "name": "Banco de Negócios Internacional (BNI)"
            },
            "dinheiro": false
        },
        {
            "type": "node",
            "id": 5549261774,
            "lat": -8.8165216,
            "lon": 13.2533927,
            "tags": {
                "addr:city": "Luanda",
                "addr:street": "Avenida Ngola Kiluanje",
                "amenity": "bank",
                "name": "Banco de Poupança e Crédito (BPC)"
            },
            "dinheiro": true
        },
        {
            "type": "node",
            "id": 5549261775,
            "lat": -8.816517,
            "lon": 13.2534316,
            "tags": {
                "addr:city": "Luanda",
                "addr:street": "Avenida Ngola Kiluanje",
                "amenity": "bank",
                "name": "Banco Millenium Atlântico"
            },
            "dinheiro": false
        },
        {
            "type": "node",
            "id": 5549450761,
            "lat": -8.8417241,
            "lon": 13.2322218,
            "tags": {
                "addr:city": "Luanda",
                "addr:street": "Avenida Revolução de Outubro",
                "amenity": "bank",
                "name": "Banco de Poupança e Crédito (BPC)"
            },
            "dinheiro": true
        },
        {
            "type": "node",
            "id": 5553417365,
            "lat": -8.8970589,
            "lon": 13.2253194,
            "tags": {
                "addr:city": "Luanda",
                "addr:street": "Avenida Pedro de C. Vandunem-Loy",
                "amenity": "bank",
                "name": "Banco Millenium Atlântico"
            },
            "dinheiro": false
        },
        {
            "type": "node",
            "id": 5553417366,
            "lat": -8.8965065,
            "lon": 13.2251962,
            "tags": {
                "addr:city": "Luanda",
                "addr:street": "Avenida Pedro de C. Vandunem-Loy",
                "amenity": "bank",
                "name": "Banco Angolano de Investimentos (BAI)"
            },
            "dinheiro": true
        },
        {
            "type": "node",
            "id": 5553417370,
            "lat": -8.8964362,
            "lon": 13.2255525,
            "tags": {
                "addr:city": "Luanda",
                "addr:street": "Avenida Pedro de C. Vandunem-Loy",
                "amenity": "bank",
                "name": "Banco Económico",
                "opening_hours": "Su-Th 09:00-22:00, Fr-Sa 09:00-23:00"
            },
            "dinheiro": false
        },
        {
            "type": "node",
            "id": 5557193228,
            "lat": -8.899661,
            "lon": 13.2322447,
            "tags": {
                "addr:city": "Luanda",
                "amenity": "bank",
                "name": "Banco de Comércio e Indústria (BCI)"
            },
            "dinheiro": true
        },
        {
            "type": "node",
            "id": 5557340531,
            "lat": -8.9049619,
            "lon": 13.2353702,
            "dinheiro": false
        },
        {
            "type": "node",
            "id": 5557340532,
            "lat": -8.906161,
            "lon": 13.2341498,
            "tags": {
                "addr:city": "Luanda",
                "amenity": "bank",
                "atm": "yes",
                "name": "Banco Keve"
            },
            "dinheiro": true
        },
        {
            "type": "node",
            "id": 5557340553,
            "lat": -8.9038688,
            "lon": 13.2350242,
            "tags": {
                "addr:city": "Luanda",
                "amenity": "bank",
                "name": "Banco Millenium Atlântico"
            },
            "dinheiro": false
        },
        {
            "type": "node",
            "id": 5560706947,
            "lat": -8.908318,
            "lon": 13.2072544,
            "dinheiro": true
        },
        {
            "type": "node",
            "id": 5560706948,
            "lat": -8.9084002,
            "lon": 13.2072968,
            "tags": {
                "addr:city": "Luanda",
                "amenity": "bank",
                "name": "Banco Millenium Atlântico"
            },
            "dinheiro": false
        },
        {
            "type": "node",
            "id": 5560706952,
            "lat": -8.9086651,
            "lon": 13.2074393,
            "tags": {
                "addr:city": "Luanda",
                "amenity": "bank",
                "name": "Banco Económico - Agência Centro de Empresas (CLT)"
            },
            "dinheiro": true
        },
        {
            "type": "node",
            "id": 5563078323,
            "lat": -8.8865141,
            "lon": 13.2070112,
            "dinheiro": false
        },
        {
            "type": "node",
            "id": 5563186083,
            "lat": -8.876899,
            "lon": 13.2109443,
            "dinheiro": true
        },
        {
            "type": "node",
            "id": 5563186102,
            "lat": -8.903256,
            "lon": 13.1893624,
            "tags": {
                "addr:city": "Luanda",
                "addr:street": "Avenida Pedro de C. Vandunem-Loy",
                "amenity": "bank",
                "name": "Banco BIC Angola"
            },
            "dinheiro": false
        },
        {
            "type": "node",
            "id": 5563186431,
            "lat": -8.9025698,
            "lon": 13.1895103,
            "dinheiro": true
        },
        {
            "type": "node",
            "id": 5578728592,
            "lat": -8.8611903,
            "lon": 13.2151378,
            "tags": {
                "addr:city": "Luanda",
                "amenity": "bank",
                "name": "Banco Económico"
            },
            "dinheiro": false
        },
        {
            "type": "node",
            "id": 5580722600,
            "lat": -8.8391863,
            "lon": 13.2513272,
            "tags": {
                "addr:city": "Luanda",
                "addr:street": "Largo da Calemba",
                "amenity": "bank",
                "name": "Banco de Poupança e Crédito (BPC)"
            },
            "dinheiro": true
        },
        {
            "type": "node",
            "id": 5595784087,
            "lat": -8.8373779,
            "lon": 13.2359626,
            "tags": {
                "amenity": "bank",
                "name": "Banco Angolano de Investimentos (BAI)"
            },
            "dinheiro": false
        },
        {
            "type": "node",
            "id": 5661088440,
            "lat": -8.9127062,
            "lon": 13.2353018,
            "dinheiro": true
        },
        {
            "type": "node",
            "id": 5661742032,
            "lat": -8.9127874,
            "lon": 13.2351202,
            "tags": {
                "addr:city": "Luanda",
                "addr:street": "Dangereux-Camama",
                "amenity": "bank",
                "name": "Banco BIC Angola"
            },
            "dinheiro": false
        },
        {
            "type": "node",
            "id": 5678134422,
            "lat": -8.8238369,
            "lon": 13.2383507,
            "dinheiro": true
        },
        {
            "type": "node",
            "id": 5678452612,
            "lat": -8.9408416,
            "lon": 13.2536236,
            "dinheiro": false
        },
        {
            "type": "node",
            "id": 5678453254,
            "lat": -8.9407705,
            "lon": 13.2566056,
            "tags": {
                "addr:city": "Luanda",
                "addr:street": "Rua do Jardim do Éden",
                "amenity": "bank",
                "name": "Banco BIC Angola"
            },
            "dinheiro": true
        },
        {
            "type": "node",
            "id": 5689212805,
            "lat": -8.943538,
            "lon": 13.2615227,
            "tags": {
                "addr:city": "Luanda",
                "addr:street": "Via Expressa Golfe-Camama",
                "amenity": "bank",
                "name": "Banco de Poupança e Crédito (BPC)"
            },
            "dinheiro": false
        },
        {
            "type": "node",
            "id": 5693978146,
            "lat": -8.9275096,
            "lon": 13.2638975,
            "tags": {
                "addr:city": "Luanda",
                "amenity": "bank",
                "name": "Banco Keve"
            },
            "dinheiro": true
        },
        {
            "type": "node",
            "id": 5694685351,
            "lat": -8.925265,
            "lon": 13.2633178,
            "tags": {
                "addr:city": "Luanda",
                "addr:street": "Via Expressa Golfe-Camama",
                "amenity": "bank",
                "name": "Banco Atlântico Millennium"
            },
            "dinheiro": false
        },
        {
            "type": "node",
            "id": 5695278448,
            "lat": -8.8966136,
            "lon": 13.2601814,
            "dinheiro": true
        },
        {
            "type": "node",
            "id": 5891886366,
            "lat": -8.8104529,
            "lon": 13.2363261,
            "tags": {
                "addr:city": "Luanda",
                "addr:street": "Rua Robert Shields",
                "amenity": "bank",
                "name": "FiniBanco Angola - Travessa Engrácia Fragoso"
            },
            "dinheiro": false
        },
        {
            "type": "node",
            "id": 5960560080,
            "lat": -8.8134635,
            "lon": 13.2321547,
            "tags": {
                "addr:city": "Luanda",
                "amenity": "bank",
                "branch": "(BPC) Centro de Empresas Muata",
                "brand": "BPC",
                "brand:wikidata": "Q4854132",
                "name": "BPC",
                "official_name": "Banco de Poupança e Crédito"
            },
            "dinheiro": true
        },
        {
            "type": "node",
            "id": 5960561385,
            "lat": -8.8134204,
            "lon": 13.2321487,
            "tags": {
                "amenity": "bank",
                "level": "5",
                "name": "Banco de Poupança e Crédito (BPC)"
            },
            "dinheiro": false
        },
        {
            "type": "node",
            "id": 5977804903,
            "lat": -8.7825003,
            "lon": 13.3066664,
            "tags": {
                "amenity": "bank",
                "name": "Banco Angolano de Investimentos (BAI) Agência Mulemba"
            },
            "dinheiro": true
        },
        {
            "type": "node",
            "id": 5977813809,
            "lat": -8.7833338,
            "lon": 13.3074999,
            "tags": {
                "amenity": "bank",
                "name": "Banco Económico - Agência Mulemba"
            },
            "dinheiro": false
        },
        {
            "type": "node",
            "id": 5977847217,
            "lat": -8.7758331,
            "lon": 13.3675003,
            "tags": {
                "amenity": "bank",
                "name": "Banco Económico - Agência Cacuaco"
            },
            "dinheiro": true
        },
        {
            "type": "node",
            "id": 5977871894,
            "lat": -8.7869444,
            "lon": 13.2802782,
            "tags": {
                "amenity": "bank",
                "name": "Banco Económico - Agência Porto Pesqueiro"
            },
            "dinheiro": false
        },
        {
            "type": "node",
            "id": 5977907701,
            "lat": -8.7963886,
            "lon": 13.2658329,
            "tags": {
                "amenity": "bank",
                "brand": "BAI",
                "brand:wikidata": "Q806172",
                "name": "BAI",
                "official_name": "Banco Angolano de Investimentos"
            },
            "dinheiro": true
        },
        {
            "type": "node",
            "id": 5978058666,
            "lat": -8.8100279,
            "lon": 13.2390609,
            "tags": {
                "amenity": "bank",
                "name": "Banco Económico - Agência Rainha Ginga"
            },
            "dinheiro": false
        },
        {
            "type": "node",
            "id": 5978202397,
            "lat": -8.8127102,
            "lon": 13.2507018,
            "tags": {
                "amenity": "bank",
                "name": "Banco Económico - Agência Bairro Operário"
            },
            "dinheiro": true
        },
        {
            "type": "node",
            "id": 5978232991,
            "lat": -8.813452,
            "lon": 13.253886,
            "tags": {
                "amenity": "bank",
                "name": "Banco Económico - Agência Bairro Operário"
            },
            "dinheiro": false
        },
        {
            "type": "node",
            "id": 5978248602,
            "lat": -8.8111192,
            "lon": 13.2555321,
            "tags": {
                "amenity": "bank",
                "name": "Banco Económico - Agência N'dunduma"
            },
            "dinheiro": true
        },
        {
            "type": "node",
            "id": 5978894415,
            "lat": -8.8155913,
            "lon": 13.2435532,
            "tags": {
                "amenity": "bank",
                "name": "Banco Económico - Agência Cruzeiro"
            },
            "dinheiro": false
        },
        {
            "type": "node",
            "id": 5979463446,
            "lat": -8.8138974,
            "lon": 13.2411556,
            "tags": {
                "amenity": "bank",
                "name": "Banco Económico - Agência Torre"
            },
            "dinheiro": true
        },
        {
            "type": "node",
            "id": 6039507760,
            "lat": -8.8155603,
            "lon": 13.2430739,
            "tags": {
                "addr:city": "Luanda",
                "amenity": "bank",
                "name": "Banco Económico - Agência Cruzeiro"
            },
            "dinheiro": false
        },
        {
            "type": "node",
            "id": 6045627718,
            "lat": -8.8249314,
            "lon": 13.2428784,
            "dinheiro": true
        },
        {
            "type": "node",
            "id": 6045627719,
            "lat": -8.8246597,
            "lon": 13.2430353,
            "dinheiro": false
        },
        {
            "type": "node",
            "id": 6128262028,
            "lat": -8.8192471,
            "lon": 13.2448484,
            "tags": {
                "addr:city": "Luanda",
                "amenity": "bank",
                "name": "Sandard Bank"
            },
            "dinheiro": true
        },
        {
            "type": "node",
            "id": 6129262547,
            "lat": -8.9161183,
            "lon": 13.185974,
            "tags": {
                "addr:street": "Via Talatona",
                "amenity": "bank",
                "name": "Banco de Negocios Internacional (BNI)"
            },
            "dinheiro": false
        },
        {
            "type": "node",
            "id": 6129465304,
            "lat": -8.915152,
            "lon": 13.1999326,
            "tags": {
                "addr:street": "Via A2",
                "amenity": "bank",
                "name": "Banco de Poupança e Crédito (BPC) Agência Talatona I"
            },
            "dinheiro": true
        },
        {
            "type": "node",
            "id": 6129465305,
            "lat": -8.9150937,
            "lon": 13.2000439,
            "dinheiro": false
        },
        {
            "type": "node",
            "id": 6137535765,
            "lat": -8.926726,
            "lon": 13.2629003,
            "dinheiro": true
        },
        {
            "type": "node",
            "id": 6138154254,
            "lat": -8.930561,
            "lon": 13.2634791,
            "tags": {
                "amenity": "bank",
                "name": "Banco BIC"
            },
            "dinheiro": false
        },
        {
            "type": "node",
            "id": 6138808076,
            "lat": -8.9624754,
            "lon": 13.2560057,
            "tags": {
                "amenity": "bank",
                "name": "FiniBanco"
            },
            "dinheiro": true
        },
        {
            "type": "node",
            "id": 6141186511,
            "lat": -8.9937279,
            "lon": 13.3969729,
            "tags": {
                "amenity": "bank",
                "name": "Banco BIC"
            },
            "dinheiro": false
        },
        {
            "type": "node",
            "id": 6141186512,
            "lat": -8.9940185,
            "lon": 13.3969963,
            "dinheiro": true
        },
        {
            "type": "node",
            "id": 6144115135,
            "lat": -8.8103838,
            "lon": 13.2466639,
            "tags": {
                "amenity": "bank",
                "name": "Banco de Poupança e Crédito (BPC)"
            },
            "dinheiro": false
        },
        {
            "type": "node",
            "id": 6145481557,
            "lat": -8.8214519,
            "lon": 13.2489902,
            "tags": {
                "addr:city": "Luanda",
                "addr:street": "Avenida Hoji Ya Henda",
                "amenity": "bank",
                "brand": "BPC",
                "brand:wikidata": "Q4854132",
                "name": "BPC",
                "official_name": "Banco de Poupança e Crédito"
            },
            "dinheiro": true
        },
        {
            "type": "node",
            "id": 6145481568,
            "lat": -8.8260828,
            "lon": 13.2470081,
            "tags": {
                "addr:city": "Luanda",
                "addr:street": "Rua G. João de Almeida",
                "amenity": "bank",
                "name": "Banco de Comercio e Industria (BCI)"
            },
            "dinheiro": false
        },
        {
            "type": "node",
            "id": 6204262704,
            "lat": -8.8468865,
            "lon": 13.2319811,
            "tags": {
                "addr:city": "Luanda",
                "addr:street": "Rua 21 de Janeiro",
                "amenity": "bank",
                "name": "Banco de Poupança e Crédito (BPC)"
            },
            "dinheiro": true
        },
        {
            "type": "node",
            "id": 6219854941,
            "lat": -8.9027237,
            "lon": 13.2152544,
            "dinheiro": false
        },
        {
            "type": "node",
            "id": 6224211767,
            "lat": -8.8296353,
            "lon": 13.2523682,
            "tags": {
                "amenity": "bank",
                "name": "Banco Económico - Agência Vila Alice"
            },
            "dinheiro": true
        },
        {
            "type": "node",
            "id": 6224211768,
            "lat": -8.8295724,
            "lon": 13.2526981,
            "tags": {
                "addr:city": "Luanda",
                "addr:street": "Largo Antonio Feliciano de Castilho",
                "amenity": "bank",
                "branch": "(BPC) Agência Nélito Soares",
                "brand": "BPC",
                "brand:wikidata": "Q4854132",
                "name": "BPC",
                "official_name": "Banco de Poupança e Crédito"
            },
            "dinheiro": false
        },
        {
            "type": "node",
            "id": 6259231178,
            "lat": -8.9725651,
            "lon": 13.3017711,
            "tags": {
                "amenity": "bank",
                "name": "Banc - Novembro"
            },
            "dinheiro": true
        },
        {
            "type": "node",
            "id": 6311948769,
            "lat": -8.9725204,
            "lon": 13.3025554,
            "tags": {
                "amenity": "bank",
                "name": "Banco de Comercio e Industria (BCI)"
            },
            "dinheiro": false
        },
        {
            "type": "node",
            "id": 6311949182,
            "lat": -8.9723138,
            "lon": 13.2968309,
            "dinheiro": true
        },
        {
            "type": "node",
            "id": 6317031950,
            "lat": -9.0168475,
            "lon": 13.4037993,
            "tags": {
                "amenity": "bank",
                "name": "Banco BIC"
            },
            "dinheiro": false
        },
        {
            "type": "node",
            "id": 6317032726,
            "lat": -9.0094959,
            "lon": 13.4010044,
            "tags": {
                "amenity": "bank",
                "name": "Banco BIC"
            },
            "dinheiro": true
        },
        {
            "type": "node",
            "id": 6317032746,
            "lat": -9.0074177,
            "lon": 13.4006369,
            "tags": {
                "amenity": "bank",
                "name": "Banco Económico - Agência Zango"
            },
            "dinheiro": false
        },
        {
            "type": "node",
            "id": 6319923351,
            "lat": -8.9781841,
            "lon": 13.3877505,
            "tags": {
                "amenity": "bank",
                "name": "Banco BIC"
            },
            "dinheiro": true
        },
        {
            "type": "node",
            "id": 6319923555,
            "lat": -8.9766279,
            "lon": 13.3738171,
            "tags": {
                "amenity": "bank",
                "name": "Banco BIC"
            },
            "dinheiro": false
        },
        {
            "type": "node",
            "id": 6320010245,
            "lat": -8.9020951,
            "lon": 13.2641751,
            "dinheiro": true
        },
        {
            "type": "node",
            "id": 6329924472,
            "lat": -9.0152949,
            "lon": 13.4024802,
            "tags": {
                "amenity": "bank",
                "name": "Banco Millenium Atlântico"
            },
            "dinheiro": false
        },
        {
            "type": "node",
            "id": 6329924536,
            "lat": -9.0247362,
            "lon": 13.404986,
            "tags": {
                "amenity": "bank",
                "name": "Banco de Negócios Internacional (BNI)"
            },
            "dinheiro": true
        },
        {
            "type": "node",
            "id": 6329924541,
            "lat": -9.0251428,
            "lon": 13.405151,
            "tags": {
                "amenity": "bank",
                "name": "Banco BIC"
            },
            "dinheiro": false
        },
        {
            "type": "node",
            "id": 6329924550,
            "lat": -9.0276885,
            "lon": 13.4057478,
            "dinheiro": true
        },
        {
            "type": "node",
            "id": 6387024601,
            "lat": -8.8975768,
            "lon": 13.2248714,
            "tags": {
                "amenity": "bank",
                "brand": "Standard Bank",
                "brand:wikidata": "Q1576610",
                "brand:wikipedia": "en:Standard Bank",
                "name": "Standard Bank"
            },
            "dinheiro": false
        },
        {
            "type": "node",
            "id": 6440398480,
            "lat": -8.9160305,
            "lon": 13.1859295,
            "tags": {
                "amenity": "bank",
                "name": "Banco de Negócios Internacional (BNI)"
            },
            "dinheiro": true
        },
        {
            "type": "node",
            "id": 6572205829,
            "lat": -8.8084652,
            "lon": 13.2393135,
            "tags": {
                "amenity": "bank",
                "atm": "yes",
                "brand": "Standard Bank",
                "brand:wikidata": "Q1576610",
                "brand:wikipedia": "en:Standard Bank",
                "drive_through": "no",
                "name": "Standard Bank"
            },
            "dinheiro": false
        },
        {
            "type": "node",
            "id": 6597688079,
            "lat": -9.0073535,
            "lon": 13.2891728,
            "dinheiro": true
        },
        {
            "type": "node",
            "id": 6598130873,
            "lat": -8.8276243,
            "lon": 13.2828172,
            "tags": {
                "addr:street": "Rua dos Comandos",
                "amenity": "bank",
                "name": "Banco de Comércio e Industria (BCI)"
            },
            "dinheiro": false
        },
        {
            "type": "node",
            "id": 6683221385,
            "lat": -8.9622969,
            "lon": 13.1507766,
            "dinheiro": true
        },
        {
            "type": "node",
            "id": 6683221386,
            "lat": -8.9623411,
            "lon": 13.1510043,
            "tags": {
                "addr:street": "Avenida Comandante Fidel Castro",
                "amenity": "bank",
                "atm": "yes",
                "name": "Millennium Atlântico"
            },
            "dinheiro": false
        },
        {
            "type": "node",
            "id": 6804283779,
            "lat": -8.8232994,
            "lon": 13.2525057,
            "tags": {
                "addr:city": "Luanda",
                "addr:street": "Avenida Hoji Ya Henda",
                "amenity": "bank",
                "name": "Banco BCI"
            },
            "dinheiro": true
        },
        {
            "type": "node",
            "id": 6804293691,
            "lat": -8.8193807,
            "lon": 13.2527603,
            "tags": {
                "addr:city": "Luanda",
                "addr:street": "Avenida Comandante Valódia",
                "amenity": "bank",
                "name": "Banco BPC (Banco de Poupança e Crédito) Agência Valódia"
            },
            "dinheiro": false
        },
        {
            "type": "node",
            "id": 6821624328,
            "lat": -8.9893779,
            "lon": 13.2838537,
            "tags": {
                "amenity": "bank",
                "name": "Banco de Poupança e Credito (BPC) Posto de Atendimento do Instituto de Relações Internacionais"
            },
            "dinheiro": true
        },
        {
            "type": "node",
            "id": 6858660224,
            "lat": -8.8283999,
            "lon": 13.2541494,
            "tags": {
                "addr:city": "Luanda",
                "addr:street": "Soba Mandume",
                "amenity": "bank",
                "name": "Banco Angolano de Investimentos (BAI)"
            },
            "dinheiro": false
        },
        {
            "type": "node",
            "id": 6861505006,
            "lat": -8.8552443,
            "lon": 13.2809717,
            "tags": {
                "addr:city": "Luanda",
                "addr:street": "Avenida Pedro de C. Vandunem-Loy",
                "amenity": "bank",
                "name": "Banco Comercial de Huambo (BCH)"
            },
            "dinheiro": true
        },
        {
            "type": "node",
            "id": 6861505017,
            "lat": -8.8683614,
            "lon": 13.2811782,
            "tags": {
                "addr:city": "Luanda",
                "addr:street": "Avenida Pedro de C. Vandunem-Loy",
                "amenity": "bank",
                "name": "Banco BIC"
            },
            "dinheiro": false
        },
        {
            "type": "node",
            "id": 7185068555,
            "lat": -8.9054143,
            "lon": 13.2341377,
            "tags": {
                "addr:city": "Luanda",
                "amenity": "bank",
                "name": "Banco de Negócios Internacional (BNI)"
            },
            "dinheiro": true
        },
        {
            "type": "node",
            "id": 7229480467,
            "lat": -8.905375,
            "lon": 13.2343667,
            "tags": {
                "addr:city": "Luanda",
                "addr:street": "Rua 53",
                "amenity": "bank",
                "name": "Banco de Negócios Internacional (BNI)"
            },
            "dinheiro": false
        },
        {
            "type": "node",
            "id": 7595593686,
            "lat": -8.9767292,
            "lon": 13.3765501,
            "tags": {
                "addr:street": "Via Expresso",
                "amenity": "bank",
                "name": "Banco de Negócios internacional (BNI)"
            },
            "dinheiro": true
        },
        {
            "type": "node",
            "id": 8321437746,
            "lat": -8.9168572,
            "lon": 13.2275089,
            "tags": {
                "addr:city": "Luanda",
                "amenity": "bank",
                "name": "Banco de Investimento Rural (BIR) - Agência Deskontão",
                "phone": "+244 944 474 803, +244 226 431 559"
            },
            "dinheiro": false
        },
        {
            "type": "node",
            "id": 8321456854,
            "lat": -8.9242493,
            "lon": 13.1892391,
            "tags": {
                "addr:city": "Luanda Sul",
                "addr:floor": "7",
                "amenity": "bank",
                "name": "Banco de Investimento Rural (BIR) - Agência de Belas",
                "phone": "+244 226 431 559"
            },
            "dinheiro": true
        },
        {
            "type": "node",
            "id": 8321502039,
            "lat": -8.90594,
            "lon": 13.3738183,
            "tags": {
                "addr:housenumber": "30",
                "amenity": "bank",
                "name": "Banco de Investimento Rural (BIR) - Agência de Viana",
                "phone": "+244 226 431 559"
            },
            "dinheiro": false
        },
        {
            "type": "node",
            "id": 8322361906,
            "lat": -8.8256506,
            "lon": 13.2419873,
            "tags": {
                "addr:city": "Luanda",
                "addr:floor": "0",
                "addr:street": "Rua Nicolau Gomes Spencer",
                "amenity": "bank",
                "name": "Banco de Investimento Rural (BIR) - Agência 1o de Maio",
                "phone": "+244 226 431 547"
            },
            "dinheiro": true
        },
        {
            "type": "node",
            "id": 8322362561,
            "lat": -8.8254395,
            "lon": 13.2243585,
            "tags": {
                "addr:city": "Luanda",
                "addr:street": "Rua dos Heróis",
                "amenity": "bank",
                "email": "info@bir.ao",
                "name": "Banco de Investinmento Rural (BIR) - Agência Bairro Azul",
                "phone": "+244 226 431 559",
                "website": "https://www.bir.ao/"
            },
            "dinheiro": false
        },
        {
            "type": "node",
            "id": 8322377564,
            "lat": -8.85393,
            "lon": 13.2959985,
            "tags": {
                "amenity": "bank",
                "name": "Banco de Investimento Rural (BIR) - SIAC Cazenga",
                "phone": "+244 226 431 559"
            },
            "dinheiro": true
        },
        {
            "type": "node",
            "id": 8462800423,
            "lat": -8.8653457,
            "lon": 13.3108429,
            "tags": {
                "amenity": "bank",
                "name": "Banco BIC"
            },
            "dinheiro": false
        },
        {
            "type": "node",
            "id": 8705574007,
            "lat": -8.9104418,
            "lon": 13.3723623,
            "tags": {
                "amenity": "bank",
                "name": "Banco Económico"
            },
            "dinheiro": true
        },
        {
            "type": "node",
            "id": 8714169444,
            "lat": -8.8128714,
            "lon": 13.2313996,
            "tags": {
                "amenity": "bank",
                "name": "Banco BIC"
            },
            "dinheiro": false
        },
        {
            "type": "node",
            "id": 8714179696,
            "lat": -8.8138986,
            "lon": 13.2325136,
            "tags": {
                "amenity": "bank",
                "name": "Millennium Atlântico"
            },
            "dinheiro": true
        },
        {
            "type": "node",
            "id": 8714182391,
            "lat": -8.8134982,
            "lon": 13.2320246,
            "tags": {
                "amenity": "bank",
                "brand": "Standard Bank",
                "brand:wikidata": "Q1576610",
                "name": "Standard Bank"
            },
            "dinheiro": false
        },
        {
            "type": "node",
            "id": 8735063583,
            "lat": -8.8135702,
            "lon": 13.2305356,
            "tags": {
                "addr:city": "Luanda",
                "addr:street": "Avenida do 1º Congresso do MPLA",
                "amenity": "bank",
                "name": "Banco Angolano de Investimento (BAI) Centro de Atendimento à Empresas Sonangol"
            },
            "dinheiro": true
        },
        {
            "type": "node",
            "id": 8849556887,
            "lat": -8.8930284,
            "lon": 13.211097,
            "tags": {
                "amenity": "bank",
                "name": "Banco BIC"
            },
            "dinheiro": false
        },
        {
            "type": "node",
            "id": 8854308309,
            "lat": -8.8569531,
            "lon": 13.2174875,
            "tags": {
                "amenity": "bank",
                "name": "Banco BIC"
            },
            "dinheiro": true
        },
        {
            "type": "node",
            "id": 8873888823,
            "lat": -8.8083857,
            "lon": 13.2243156,
            "tags": {
                "amenity": "bank",
                "name": "Banco BAI"
            },
            "dinheiro": false
        },
        {
            "type": "node",
            "id": 8874529423,
            "lat": -8.8128058,
            "lon": 13.2302314,
            "dinheiro": true
        },
        {
            "type": "node",
            "id": 8874542043,
            "lat": -8.8134104,
            "lon": 13.2301119,
            "dinheiro": false
        },
        {
            "type": "node",
            "id": 8874844605,
            "lat": -8.8176294,
            "lon": 13.2298057,
            "dinheiro": true
        },
        {
            "type": "node",
            "id": 8878025746,
            "lat": -8.8889674,
            "lon": 13.2039677,
            "dinheiro": false
        },
        {
            "type": "node",
            "id": 8878706613,
            "lat": -8.8183196,
            "lon": 13.230878,
            "dinheiro": true
        },
        {
            "type": "node",
            "id": 8878787139,
            "lat": -8.8188729,
            "lon": 13.2312666,
            "dinheiro": false
        },
        {
            "type": "node",
            "id": 8879081810,
            "lat": -8.8243217,
            "lon": 13.2282669,
            "dinheiro": true
        },
        {
            "type": "node",
            "id": 9676287917,
            "lat": -8.8402303,
            "lon": 13.2684587,
            "dinheiro": false
        },
        {
            "type": "node",
            "id": 9676288017,
            "lat": -8.8419803,
            "lon": 13.2723093,
            "dinheiro": true
        },
        {
            "type": "node",
            "id": 9904106032,
            "lat": -8.8134812,
            "lon": 13.2310553,
            "dinheiro": false
        },
        {
            "type": "node",
            "id": 9907106494,
            "lat": -8.8706509,
            "lon": 13.3191,
            "dinheiro": true
        },
        {
            "type": "node",
            "id": 9907107178,
            "lat": -8.8807239,
            "lon": 13.3352679,
            "dinheiro": false
        },
        {
            "type": "node",
            "id": 9907126541,
            "lat": -8.88324,
            "lon": 13.3385037,
            "dinheiro": true
        },
        {
            "type": "node",
            "id": 9907149171,
            "lat": -8.9434007,
            "lon": 13.4338039,
            "dinheiro": false
        },
        {
            "type": "node",
            "id": 9946396990,
            "lat": -8.8261058,
            "lon": 13.24706,
            "dinheiro": true
        },
        {
            "type": "node",
            "id": 9948697967,
            "lat": -8.8749756,
            "lon": 13.211085,
            "dinheiro": false
        },
        {
            "type": "node",
            "id": 9980207916,
            "lat": -8.9744018,
            "lon": 13.3469083,
            "dinheiro": true
        },
        {
            "type": "node",
            "id": 10004001654,
            "lat": -8.9009721,
            "lon": 13.2594799,
            "dinheiro": false
        },
        {
            "type": "node",
            "id": 10007410414,
            "lat": -8.975196,
            "lon": 13.1718409,
            "dinheiro": true
        },
        {
            "type": "node",
            "id": 10007436619,
            "lat": -8.9788229,
            "lon": 13.1774145,
            "dinheiro": false
        },
        {
            "type": "node",
            "id": 10007542566,
            "lat": -8.9546556,
            "lon": 13.1512728,
            "dinheiro": true
        },
        {
            "type": "node",
            "id": 10035828807,
            "lat": -8.8776973,
            "lon": 13.2814234,
            "dinheiro": false
        },
        {
            "type": "node",
            "id": 10044092840,
            "lat": -8.8884959,
            "lon": 13.2435033,
            "dinheiro": true
        },
        {
            "type": "node",
            "id": 11093015205,
            "lat": -8.9797038,
            "lon": 13.3912588,
            "dinheiro": false
        },
        {
            "type": "node",
            "id": 11787656544,
            "lat": -8.8180422,
            "lon": 13.2411729,
            "dinheiro": true
        },
        {
            "type": "node",
            "id": 12194403140,
            "lat": -8.9267341,
            "lon": 13.1889608,
            "dinheiro": false
        },
        {
            "type": "node",
            "id": 12204807951,
            "lat": -8.9182923,
            "lon": 13.1874923,
            "dinheiro": true
        },
        {
            "type": "node",
            "id": 12205231665,
            "lat": -8.9204639,
            "lon": 13.1734845,
            "dinheiro": false
        },
        {
            "type": "node",
            "id": 12216185724,
            "lat": -8.9232659,
            "lon": 13.1722752,
            "dinheiro": true
        },
        {
            "type": "node",
            "id": 12241196165,
            "lat": -8.9233242,
            "lon": 13.1904377,
            "dinheiro": false
        },
        {
            "type": "node",
            "id": 12241196168,
            "lat": -8.922813,
            "lon": 13.1907547,
            "dinheiro": true
        },
        {
            "type": "node",
            "id": 12314269615,
            "lat": -8.9515252,
            "lon": 13.1927577,
            "dinheiro": false
        },
        {
            "type": "node",
            "id": 12314269616,
            "lat": -8.9514482,
            "lon": 13.192586,
            "dinheiro": true
        },
        {
            "type": "node",
            "id": 12314269617,
            "lat": -8.9513734,
            "lon": 13.1924167,
            "dinheiro": false
        },
        {
            "type": "node",
            "id": 12314269618,
            "lat": -8.9513026,
            "lon": 13.1922515,
            "dinheiro": true
        },
        {
            "type": "node",
            "id": 12314269619,
            "lat": -8.9512239,
            "lon": 13.1920763,
            "dinheiro": false
        },
        {
            "type": "node",
            "id": 12314269620,
            "lat": -8.9510511,
            "lon": 13.1916922,
            "dinheiro": true
        },
        {
            "type": "node",
            "id": 12314269627,
            "lat": -8.9518473,
            "lon": 13.193393,
            "dinheiro": false
        },
        {
            "type": "node",
            "id": 12323870993,
            "lat": -8.9500714,
            "lon": 13.1895493,
            "dinheiro": true
        }
    ]
}